{"type": "FeatureCollection", "features": [{"type": "Feature", "properties": {"nazev": "Portugalsko"}, "geometry": {"type": "Point", "coordinates": [-8.284779222907536, 39.54478]}}, {"type": "Feature", "properties": {"nazev": "Černá Hora"}, "geometry": {"type": "Point", "coordinates": [19.145576860079885, 42.59272]}}, {"type": "Feature", "properties": {"nazev": "Řecko"}, "geometry": {"type": "Point", "coordinates": [21.732922057635484, 38.8113]}}, {"type": "Feature", "properties": {"nazev": "Osmanská říše"}, "geometry": {"type": "Point", "coordinates": [24.080338918099365, 41.32654]}}, {"type": "Feature", "properties": {"nazev": "Rumunsko"}, "geometry": {"type": "Point", "coordinates": [27.28653133008953, 45.931889999999996]}}, {"type": "Feature", "properties": {"nazev": "Srbsko"}, "geometry": {"type": "Point", "coordinates": [20.98348034230491, 43.670325]}}, {"type": "Feature", "properties": {"nazev": "Bulharsko"}, "geometry": {"type": "Point", "coordinates": [25.2088166881514, 42.889160000000004]}}, {"type": "Feature", "properties": {"nazev": "Andorra"}, "geometry": {"type": "Point", "coordinates": [1.5942677400928245, 42.53645]}}, {"type": "Feature", "properties": {"nazev": "San Marino"}, "geometry": {"type": "Point", "coordinates": [12.486782396084617, 43.96606]}}, {"type": "Feature", "properties": {"nazev": "Malta"}, "geometry": {"type": "Point", "coordinates": [14.44917726360162, 35.884460000000004]}}, {"type": "Feature", "properties": {"nazev": "Spojené království"}, "geometry": {"type": "Point", "coordinates": [-8.106815528021896, 53.423294999999996]}}, {"type": "Feature", "properties": {"nazev": "Lichtenštejnsko"}, "geometry": {"type": "Point", "coordinates": [9.546321996760497, 47.154655000000005]}}, {"type": "Feature", "properties": {"nazev": "Švýcarsko"}, "geometry": {"type": "Point", "coordinates": [8.451712164768127, 46.817255]}}, {"type": "Feature", "properties": {"nazev": "Lucembursko"}, "geometry": {"type": "Point", "coordinates": [6.127577646432889, 49.8116]}}, {"type": "Feature", "properties": {"nazev": "Nizozemsko"}, "geometry": {"type": "Point", "coordinates": [5.499408585021936, 52.09437]}}, {"type": "Feature", "properties": {"nazev": "Belgie"}, "geometry": {"type": "Point", "coordinates": [4.7662033915722155, 50.502575]}}, {"type": "Feature", "properties": {"nazev": "Itálie"}, "geometry": {"type": "Point", "coordinates": [13.024396997487438, 42.3133]}}, {"type": "Feature", "properties": {"nazev": "Francie"}, "geometry": {"type": "Point", "coordinates": [2.185126541721199, 46.72541]}}, {"type": "Feature", "properties": {"nazev": "Španělsko"}, "geometry": {"type": "Point", "coordinates": [-3.466915064069164, 39.894310000000004]}}, {"type": "Feature", "properties": {"nazev": "Ruské impérium"}, "geometry": {"type": "Point", "coordinates": [39.26814949501574, 54.246494999999996]}}, {"type": "Feature", "properties": {"nazev": "Švédsko"}, "geometry": {"type": "Point", "coordinates": [14.939831513133687, 62.202574999999996]}}, {"type": "Feature", "properties": {"nazev": "Norsko"}, "geometry": {"type": "Point", "coordinates": [12.620823570498949, 64.554565]}}, {"type": "Feature", "properties": {"nazev": "Německé císařství"}, "geometry": {"type": "Point", "coordinates": [12.144955118719873, 51.58895]}}, {"type": "Feature", "properties": {"nazev": "Dánsko"}, "geometry": {"type": "Point", "coordinates": [9.184981953679948, 56.176855]}}]}