{"type": "FeatureCollection", "features": [{"type": "Feature", "geometry": {"type": "Point", "coordinates": [18.0814, 44.0985]}, "properties": {"de": "Bosnien und Herzegowina", "nazev": "Bosna a Hercegovina"}}, {"type": "Feature", "geometry": {"type": "Point", "coordinates": [15.7869, 48.2562]}, "properties": {"de": "Erzherzogtum Österreich unter der Enns", "nazev": "Dolní Rakousy"}}, {"type": "Feature", "geometry": {"type": "Point", "coordinates": [15.3633, 47.2839]}, "properties": {"de": "Herzogtum Steiermark", "nazev": "Štýrsko"}}, {"type": "Feature", "geometry": {"type": "Point", "coordinates": [17.4483, 50.111]}, "properties": {"de": "Herzogtum Ober- und Niederschlesien", "nazev": "Slezsko"}}, {"type": "Feature", "geometry": {"type": "Point", "coordinates": [13.2586, 47.3662]}, "properties": {"de": "Herzogtum Salzburg", "nazev": "Salcbursko"}}, {"type": "Feature", "geometry": {"type": "Point", "coordinates": [14.2886, 49.8392]}, "properties": {"de": "Königreich Böhmen", "nazev": "Čechy"}}, {"type": "Feature", "geometry": {"type": "Point", "coordinates": [17.0561, 49.4095]}, "properties": {"de": "Markgrafschaft Mähren", "nazev": "Morava"}}, {"type": "Feature", "geometry": {"type": "Point", "coordinates": [13.8042, 45.6575]}, "properties": {"de": "Triest mit Gebiet", "nazev": "Terst"}}, {"type": "Feature", "geometry": {"type": "Point", "coordinates": [13.9805, 48.1541]}, "properties": {"de": "Erzherzogtum Österreich ob der Enns", "nazev": "Horní Rakousy"}}, {"type": "Feature", "geometry": {"type": "Point", "coordinates": [18.1709, 45.511]}, "properties": {"de": "Freie Stadt Fiume mit Gebiet", "nazev": "Rijeka"}}, {"type": "Feature", "geometry": {"type": "Point", "coordinates": [9.8917, 47.2548]}, "properties": {"de": "Land Vorarlberg", "nazev": "Vorarlbersko"}}, {"type": "Feature", "geometry": {"type": "Point", "coordinates": [14.4022, 45.9748]}, "properties": {"de": "Herzogtum Krain", "nazev": "Kraňsko"}}, {"type": "Feature", "geometry": {"type": "Point", "coordinates": [16.2706, 43.7896]}, "properties": {"de": "Königreich Dalmatien", "nazev": "Dalmácie"}}, {"type": "Feature", "geometry": {"type": "Point", "coordinates": [13.6725, 45.9564]}, "properties": {"de": "Gefürstete Grafschaft Görz und Gradisca", "nazev": "Gorice a Gradiška"}}, {"type": "Feature", "geometry": {"type": "Point", "coordinates": [11.2557, 46.7178]}, "properties": {"de": "Gefürstete Grafschaft Tirol", "nazev": "Tyrolsko"}}, {"type": "Feature", "geometry": {"type": "Point", "coordinates": [14.1854, 46.7537]}, "properties": {"de": "Herzogtum Kärnten", "nazev": "Korutany"}}, {"type": "Feature", "geometry": {"type": "Point", "coordinates": [25.6097, 47.913]}, "properties": {"de": "Herzogtum Bukowina", "nazev": "Bukovina"}}, {"type": "Feature", "geometry": {"type": "Point", "coordinates": [24.1591, 49.5183]}, "properties": {"de": "Königreich Galizien und Lodomerien", "nazev": "Halič"}}, {"type": "Feature", "geometry": {"type": "Point", "coordinates": [13.9361, 45.3239]}, "properties": {"de": "Markgrafschaft Istrien", "nazev": "Istrie"}}, {"type": "Feature", "geometry": {"type": "Point", "coordinates": [16.2644, 45.6926]}, "properties": {"de": "Königreich Kroatien und Slawonien", "nazev": "Chorvatsko-Slavonsko"}}, {"type": "Feature", "geometry": {"type": "Point", "coordinates": [21.4584, 47.0949]}, "properties": {"de": "Königreich Ungarn", "nazev": "Uhersko"}}]}