{"type":"FeatureCollection", "features": [
{"type":"Feature","geometry":{"type":"Polygon","coordinates":[[[18.56423,42.64365],[18.55853,42.65893],[18.54625,42.69183],[18.54849,42.69444],[18.57044,42.71993],[18.55521,42.72111],[18.53442,42.72273],[18.47779,42.77169],[18.47276,42.78555],[18.45826,42.82552],[18.46919,42.85425],[18.50965,42.88689],[18.48776,42.92089],[18.48293,42.92839],[18.4984,42.99589],[18.53568,43.03346],[18.62295,43.02966],[18.66029,43.03739],[18.6591,43.04823],[18.64822,43.14728],[18.66059,43.18301],[18.66782,43.20391],[18.68284,43.21671],[18.70581,43.2363],[18.69818,43.24452],[18.68845,43.25499],[18.7299,43.27913],[18.73293,43.28089],[18.8536,43.32432],[18.84446,43.33944],[18.83908,43.34836],[18.91442,43.35977],[18.95964,43.31711],[18.95812,43.30603],[18.95563,43.2878],[18.97173,43.28353],[18.98234,43.28072],[18.99729,43.26386],[19.00904,43.25061],[19.02106,43.2676],[19.03724,43.29049],[19.0775,43.30246],[19.08341,43.31911],[19.04028,43.3652],[19.04291,43.39633],[19.01866,43.43074],[19.00353,43.44122],[18.96191,43.47004],[18.95758,43.49761],[18.95365,43.52262],[18.97783,43.52646],[18.97882,43.52662],[18.98853,43.55531],[19.03696,43.52837],[19.04344,43.52476],[19.05038,43.50505],[19.05146,43.50199],[19.0515,43.502],[19.15279,43.53661],[19.2507,43.5299],[19.25349,43.56744],[19.25404,43.57484],[19.2605,43.58284],[19.27162,43.59662],[19.3363,43.58765],[19.34546,43.5939],[19.36648,43.60826],[19.42931,43.58075],[19.44901,43.57643],[19.4811,43.56939],[19.4887,43.59044],[19.4921,43.59985],[19.49002,43.61735],[19.48827,43.63203],[19.48828,43.63203],[19.51066,43.63121],[19.52698,43.64966],[19.52186,43.68177],[19.51708,43.71179],[19.48347,43.74472],[19.46342,43.76436],[19.41993,43.7961],[19.39317,43.79817],[19.38089,43.82333],[19.37549,43.83438],[19.35953,43.84736],[19.31575,43.88297],[19.35953,43.84736],[19.31575,43.88297],[19.31481,43.88463],[19.29424,43.92119],[19.26599,43.95296],[19.23642,43.98622],[19.24856,43.99123],[19.26892,43.99962],[19.29218,43.99804],[19.30428,43.99722],[19.3292,43.98495],[19.37692,43.96145],[19.4693,43.95797],[19.53601,43.95546],[19.55018,43.97848],[19.56235,43.99825],[19.61922,44.01269],[19.61182,44.03393],[19.59904,44.07059],[19.57894,44.07025],[19.5589,44.06991],[19.51063,44.08124],[19.49319,44.1159],[19.41959,44.14266],[19.40923,44.16765],[19.40836,44.16974],[19.37141,44.18018],[19.36105,44.18311],[19.35248,44.21608],[19.34623,44.24014],[19.33324,44.25964],[19.32697,44.26905],[19.27968,44.27677],[19.25745,44.26817],[19.23966,44.26128],[19.21923,44.28474],[19.21672,44.28763],[19.21099,44.2865],[19.17646,44.27968],[19.1301,44.31884],[19.10358,44.36857],[19.10776,44.39606],[19.14671,44.4133],[19.14002,44.47131],[19.12746,44.49267],[19.12233,44.5014],[19.1301,44.52202],[19.154,44.5237],[19.16843,44.52472],[19.18064,44.53762],[19.189,44.54646],[19.21413,44.58587],[19.23811,44.62347],[19.26101,44.64617],[19.30214,44.68695],[19.30154,44.70756],[19.30094,44.7282],[19.3234,44.76418],[19.29592,44.78335],[19.33319,44.81878],[19.35294,44.88979],[19.30909,44.90911],[19.25738,44.91371],[19.21289,44.89755],[19.17022,44.92028],[19.12336,44.88796],[19.06721,44.8612],[18.9773,44.84991],[18.84976,44.85456],[18.81925,44.87843],[18.7648,44.9046],[18.80405,44.94605],[18.78456,44.97112],[18.7924,44.99518],[18.76039,44.99969],[18.71782,45.03524],[18.69375,45.03955],[18.66957,45.06638],[18.61483,45.06176],[18.59682,45.08316],[18.56727,45.0801],[18.53005,45.0564],[18.47776,45.06214],[18.42028,45.10932],[18.31991,45.10173],[18.23612,45.13613],[18.20833,45.11742],[18.22008,45.09533],[18.1856,45.07665],[18.12,45.08024],[18.07549,45.10472],[18.0735,45.13882],[18.013,45.15103],[17.98621,45.14445],[17.96868,45.11655],[17.93728,45.11052],[17.93739,45.08451],[17.86718,45.04571],[17.83312,45.04838],[17.78334,45.08331],[17.75775,45.0857],[17.66274,45.13397],[17.59193,45.10692],[17.504,45.11486],[17.49364,45.13079],[17.45072,45.12723],[17.33859,45.14524],[17.27143,45.18899],[17.24493,45.14596],[17.16338,45.15193],[17.07242,45.18996],[17.03905,45.22405],[17.00941,45.23873],[16.94219,45.22735],[16.9531,45.25288],[16.93917,45.27331],[16.88773,45.24673],[16.87803,45.22186],[16.84482,45.19286],[16.79881,45.18605],[16.74266,45.20438],[16.69996,45.19717],[16.65274,45.20532],[16.60257,45.22724],[16.52047,45.22335],[16.47548,45.18294],[16.47395,45.15171],[16.39275,45.10911],[16.39029,45.06881],[16.34985,45.00225],[16.29178,44.9987],[16.27996,45.01076],[16.19252,45.03228],[16.17554,45.06904],[16.10925,45.09354],[16.08659,45.13061],[16.05638,45.15773],[16.01484,45.21737],[15.92416,45.2262],[15.85845,45.21689],[15.83665,45.22373],[15.77687,45.18386],[15.76522,45.16613],[15.79033,45.11499],[15.75179,45.05313],[15.78529,44.98991],[15.75504,44.97031],[15.74077,44.93184],[15.76023,44.86962],[15.79622,44.8232],[15.89405,44.74935],[15.93178,44.71132],[15.96057,44.64132],[16.03132,44.55529],[16.06795,44.53511],[16.09314,44.53463],[16.1367,44.48421],[16.14061,44.42722],[16.17244,44.40282],[16.12823,44.39495],[16.21869,44.34814],[16.1887,44.30955],[16.19072,44.27364],[16.22083,44.2329],[16.19519,44.21391],[16.22881,44.20418],[16.3097,44.14322],[16.31846,44.11449],[16.35927,44.10197],[16.36953,44.08213],[16.42766,44.08318],[16.44217,44.06691],[16.43665,44.0307],[16.50223,44.02438],[16.53675,43.98634],[16.55016,43.95357],[16.58752,43.9432],[16.64697,43.88713],[16.71023,43.85485],[16.72465,43.79623],[16.75275,43.76966],[16.80063,43.76274],[16.82615,43.73207],[16.87259,43.70655],[16.93179,43.64386],[16.97101,43.61805],[16.99055,43.59151],[17.03663,43.55927],[17.06308,43.55375],[17.14961,43.49566],[17.17538,43.49012],[17.22894,43.49707],[17.28249,43.46777],[17.28433,43.43565],[17.25178,43.40472],[17.26541,43.3728],[17.33211,43.26991],[17.35875,43.24963],[17.39658,43.24509],[17.42193,43.22961],[17.42694,43.18849],[17.47283,43.16399],[17.55401,43.13067],[17.64122,43.08916],[17.66498,43.04403],[17.71207,42.973],[17.6518,42.95911],[17.61859,42.94266],[17.5793,42.93707],[17.60295,42.91119],[17.64854,42.88849],[17.67566,42.9187],[17.72384,42.91922],[17.78724,42.89162],[17.80905,42.9171],[17.84446,42.90236],[17.88749,42.8147],[17.95017,42.79898],[18.01031,42.75258],[18.04156,42.74828],[18.14272,42.6797],[18.15917,42.6567],[18.1911,42.65516],[18.24406,42.6027],[18.28168,42.61722],[18.36639,42.61615],[18.3904,42.58921],[18.4369,42.56364],[18.44247,42.48114],[18.48368,42.45145],[18.45656,42.44965],[18.51291,42.45018],[18.53202,42.45036],[18.51261,42.45842],[18.5125,42.49543],[18.62974,42.53263],[18.63764,42.58434],[18.65,42.59673],[18.64488,42.61415],[18.60947,42.60719],[18.59975,42.60528],[18.55491,42.58016],[18.52014,42.61833],[18.56423,42.64365]]]},"properties":{"name":"Bosnien und Herzegowina"}},
{"type":"Feature","geometry":{"type":"Polygon","coordinates":[[[16.17203,47.42207],[16.22426,47.42794],[16.30261,47.46684],[16.33916,47.51601],[16.30917,47.54617],[16.37297,47.64285],[16.35137,47.67168],[16.30883,47.68736],[16.29221,47.71867],[16.30413,47.78509],[16.38826,47.84282],[16.35606,47.86592],[16.40025,47.87595],[16.4367,47.92727],[16.46637,47.94004],[16.5265,47.93241],[16.57417,47.88701],[16.6326,47.92949],[16.65871,47.9609],[16.69948,47.96601],[16.70135,48.01171],[16.75434,48.0128],[16.83563,48.04479],[16.87335,48.07203],[16.91749,48.06769],[16.98727,48.02959],[16.99815,48.05446],[17.03628,48.08432],[17.0689,48.12398],[16.97619,48.17199],[16.97639,48.19009],[16.94633,48.23462],[16.94659,48.27062],[16.92112,48.27229],[16.89406,48.31219],[16.90951,48.32612],[16.84291,48.35796],[16.83381,48.38384],[16.8635,48.41906],[16.85012,48.45038],[16.91402,48.5016],[16.9536,48.54502],[16.93532,48.57243],[16.93929,48.61692],[16.96959,48.64481],[16.97939,48.68169],[16.91865,48.69257],[16.88754,48.71656],[16.86947,48.76034],[16.87044,48.78561],[16.69336,48.77665],[16.63451,48.78639],[16.59338,48.78259],[16.54061,48.81403],[16.51552,48.80271],[16.4628,48.80521],[16.40655,48.74147],[16.36483,48.72799],[16.15386,48.74826],[16.09058,48.74715],[15.99219,48.77999],[15.94964,48.80525],[15.95738,48.82363],[15.8645,48.8522],[15.828,48.87108],[15.77952,48.87489],[15.75369,48.85221],[15.68645,48.85725],[15.61958,48.89577],[15.57801,48.8963],[15.51327,48.91404],[15.50117,48.93698],[15.41421,48.95538],[15.36705,48.98171],[15.32171,48.97611],[15.28915,48.99292],[15.26978,48.95781],[15.16912,48.96648],[15.15493,48.99417],[15.06439,48.99972],[15.02125,49.0211],[14.97643,48.97073],[14.99146,48.89733],[14.94643,48.88983],[14.89492,48.91385],[14.85979,48.82499],[14.81563,48.79613],[14.81253,48.76329],[14.77464,48.7114],[14.73537,48.69867],[14.71255,48.64984],[14.72113,48.60195],[14.69111,48.58458],[14.72509,48.56207],[14.79219,48.55915],[14.89573,48.52333],[14.91199,48.50746],[14.86699,48.47985],[14.87786,48.45428],[14.93785,48.42368],[14.96432,48.38821],[14.94432,48.32383],[14.97961,48.32344],[14.9916,48.25653],[14.94077,48.2305],[14.85639,48.22554],[14.83893,48.19163],[14.7403,48.17399],[14.68809,48.157],[14.64319,48.17516],[14.58432,48.22411],[14.5258,48.24015],[14.4931,48.22546],[14.48471,48.17449],[14.46903,48.14745],[14.46918,48.10047],[14.45429,48.08067],[14.45583,48.04502],[14.49186,48.01069],[14.58448,47.96713],[14.61013,47.94886],[14.72965,47.92377],[14.77239,47.88317],[14.75639,47.86641],[14.71005,47.85071],[14.71119,47.78963],[14.73819,47.74872],[14.76696,47.72609],[14.81842,47.74428],[14.86091,47.74186],[14.87745,47.71564],[14.928,47.71051],[14.95142,47.73247],[15.03515,47.75287],[15.05618,47.741],[15.13147,47.7476],[15.15836,47.75825],[15.20025,47.75356],[15.20908,47.78904],[15.23508,47.79854],[15.28704,47.79012],[15.30032,47.82107],[15.37842,47.82396],[15.41001,47.7849],[15.50472,47.76857],[15.51391,47.74644],[15.6159,47.74658],[15.63628,47.71554],[15.67857,47.69897],[15.71396,47.69782],[15.74512,47.63141],[15.77358,47.64117],[15.82188,47.63795],[15.86272,47.6136],[15.84435,47.58614],[15.90546,47.56187],[15.91244,47.53109],[15.95524,47.51714],[16.01628,47.51702],[16.04099,47.50076],[16.08997,47.50746],[16.12027,47.47791],[16.1416,47.44029],[16.17203,47.42207]]]},"properties":{"name":"Erzherzogtum Österreich unter der Enns"}},
{"type":"Feature","geometry":{"type":"Polygon","coordinates":[[[14.56553,46.36747],[14.58748,46.35539],[14.63765,46.36433],[14.64043,46.33448],[14.70456,46.28462],[14.70474,46.25795],[14.75592,46.25083],[14.85405,46.25039],[14.90214,46.21867],[14.93178,46.18558],[14.99596,46.19546],[15.03181,46.12333],[15.09269,46.12237],[15.17187,46.08377],[15.20432,46.04727],[15.26628,46.04608],[15.26366,46.02432],[15.34267,45.99345],[15.4697,45.98677],[15.49717,45.94035],[15.55347,45.92423],[15.58145,45.90142],[15.62946,45.89708],[15.6775,45.86878],[15.67968,45.90413],[15.70652,45.92176],[15.71201,46.0044],[15.70952,46.05831],[15.64314,46.08784],[15.60551,46.11291],[15.60765,46.16718],[15.64518,46.18721],[15.64676,46.21698],[15.68081,46.22735],[15.77883,46.21266],[15.80136,46.24256],[15.79117,46.25947],[16.01433,46.30867],[16.03613,46.33696],[16.07792,46.3458],[16.05057,46.38199],[16.15125,46.40465],[16.18899,46.37764],[16.3015,46.37836],[16.30771,46.39728],[16.27564,46.41908],[16.25827,46.47266],[16.24086,46.48466],[16.24229,46.52137],[16.26777,46.53888],[16.19212,46.58417],[16.10857,46.6105],[16.03558,46.65085],[16.04261,46.6861],[15.99113,46.73562],[15.98945,46.77938],[16.01397,46.88447],[16.06206,46.91364],[16.06882,46.93443],[16.13465,46.99488],[16.08669,47.07423],[16.09524,47.11285],[16.11652,47.14419],[16.08097,47.22943],[16.08244,47.26208],[16.06502,47.28674],[16.0301,47.37929],[16.09314,47.39009],[16.12644,47.41269],[16.17203,47.42207],[16.1416,47.44029],[16.12027,47.47791],[16.08997,47.50746],[16.04099,47.50076],[16.01628,47.51702],[15.95524,47.51714],[15.91244,47.53109],[15.90546,47.56187],[15.84435,47.58614],[15.86272,47.6136],[15.82188,47.63795],[15.77358,47.64117],[15.74512,47.63141],[15.71396,47.69782],[15.67857,47.69897],[15.63628,47.71554],[15.6159,47.74658],[15.51391,47.74644],[15.50472,47.76857],[15.41001,47.7849],[15.37842,47.82396],[15.30032,47.82107],[15.28704,47.79012],[15.23508,47.79854],[15.20908,47.78904],[15.20025,47.75356],[15.15836,47.75825],[15.13147,47.7476],[15.05618,47.741],[15.03515,47.75287],[14.95142,47.73247],[14.928,47.71051],[14.87745,47.71564],[14.86091,47.74186],[14.81842,47.74428],[14.76696,47.72609],[14.73819,47.74872],[14.69627,47.76581],[14.64399,47.72745],[14.53275,47.71408],[14.50833,47.67928],[14.48515,47.68158],[14.43675,47.65237],[14.33504,47.61812],[14.32622,47.60837],[14.26396,47.6103],[14.20549,47.65238],[14.065,47.61593],[14.04654,47.62655],[14.05549,47.66735],[14.00235,47.703],[13.95213,47.71002],[13.91943,47.7047],[13.86171,47.726],[13.75539,47.70035],[13.73818,47.67471],[13.70803,47.66541],[13.69217,47.59013],[13.73518,47.57727],[13.75568,47.55319],[13.76074,47.52017],[13.70607,47.46379],[13.5886,47.47295],[13.57409,47.42693],[13.58292,47.36868],[13.60361,47.33003],[13.59809,47.2935],[13.63142,47.27404],[13.67512,47.27464],[13.71147,47.25928],[13.72425,47.27822],[13.76056,47.26643],[13.80456,47.29267],[13.8213,47.26848],[13.86254,47.2537],[13.85011,47.23082],[13.90295,47.19504],[13.92259,47.17172],[13.99343,47.14168],[13.94247,47.1371],[13.88122,47.10874],[13.90578,47.07128],[13.86389,47.021],[13.86466,46.99591],[13.83207,46.9653],[13.78449,46.94341],[13.82953,46.91321],[13.88137,46.91803],[13.95129,46.95663],[14.00697,46.97089],[14.01283,47.0037],[14.04841,47.00399],[14.13277,47.06233],[14.16226,47.05258],[14.20346,47.07618],[14.22479,47.03604],[14.2903,47.02606],[14.32923,47.02985],[14.38221,47.01429],[14.38658,46.98084],[14.45829,47.01237],[14.50367,47.01878],[14.52313,47.00946],[14.71632,47.01838],[14.77144,47.0395],[14.83029,47.04918],[14.90452,46.99996],[14.9667,46.98212],[14.99379,46.93841],[15.0282,46.90852],[15.0083,46.87747],[15.01256,46.83265],[14.98969,46.82162],[14.97626,46.78479],[15.02604,46.77183],[15.04355,46.71375],[15.02999,46.67761],[15.09188,46.64028],[15.1046,46.60599],[15.03952,46.59589],[15.01108,46.56673],[15.0028,46.49928],[14.96536,46.48473],[14.94413,46.43437],[14.89526,46.41993],[14.84943,46.41743],[14.76513,46.43059],[14.7212,46.44986],[14.66535,46.44959],[14.58627,46.43012],[14.58589,46.39138],[14.56553,46.36747]]]},"properties":{"name":"Herzogtum Steiermark"}},
{"type":"Feature","geometry":{"type":"MultiPolygon","coordinates":[[[[18.53448,49.48452],[18.5457,49.5006],[18.6029,49.498],[18.68513,49.50541],[18.75379,49.49014],[18.81126,49.51595],[18.94626,49.5173],[18.95986,49.5523],[18.9867,49.57226],[19.01772,49.62491],[18.99933,49.6518],[18.95315,49.67852],[18.99851,49.71462],[18.98503,49.73608],[19.0278,49.75891],[19.08308,49.77052],[19.04496,49.80498],[19.03382,49.91858],[19.01645,49.95243],[19.01644,49.95243],[18.98437,49.93319],[18.96476,49.92142],[18.86387,49.92138],[18.80463,49.93123],[18.74614,49.94095],[18.72861,49.90804],[18.72861,49.90803],[18.66686,49.8875],[18.65252,49.88958],[18.5872,49.89906],[18.5766,49.92312],[18.52497,49.90169],[18.43029,49.93744],[18.43028,49.93744],[18.33312,49.92749],[18.32604,49.9036],[18.29622,49.88101],[18.28074,49.86929],[18.29728,49.83404],[18.27862,49.79831],[18.30769,49.76152],[18.29551,49.74694],[18.32905,49.68988],[18.36786,49.64786],[18.35496,49.61706],[18.36554,49.56381],[18.42261,49.50681],[18.44823,49.46213],[18.46794,49.45574],[18.52883,49.47278],[18.53448,49.48452]]],[[[17.0281,50.23034],[17.07459,50.19969],[17.1601,50.12111],[17.21992,50.10285],[17.23274,50.06065],[17.28496,50.02003],[17.31213,50.01657],[17.32642,49.98055],[17.35373,49.95288],[17.40312,49.93931],[17.40128,49.97418],[17.46601,49.955],[17.50425,49.9125],[17.61391,49.89116],[17.65442,49.89217],[17.64046,49.81591],[17.64672,49.78655],[17.679,49.76298],[17.69386,49.72822],[17.75354,49.7167],[17.73768,49.67998],[17.77897,49.63258],[17.83436,49.60701],[17.86531,49.60513],[17.87889,49.63186],[17.86312,49.66635],[17.86954,49.73135],[17.84541,49.74047],[17.86178,49.78352],[17.89688,49.75992],[17.92451,49.71285],[17.97266,49.73266],[17.98932,49.68612],[18.01225,49.67715],[18.12135,49.71748],[18.1933,49.75929],[18.22238,49.80554],[18.22132,49.83434],[18.24266,49.86037],[18.28072,49.86929],[18.19596,49.86573],[18.13008,49.90518],[17.95386,49.93225],[17.95385,49.93225],[17.90995,49.97684],[17.87349,49.9746],[17.86671,49.97418],[17.77231,50.02645],[17.77052,50.05152],[17.73116,50.09731],[17.73115,50.09731],[17.64986,50.11309],[17.64983,50.1131],[17.6184,50.13985],[17.59429,50.16038],[17.59431,50.16038],[17.75198,50.19265],[17.75205,50.19266],[17.73368,50.24971],[17.75186,50.29995],[17.70087,50.32104],[17.68734,50.32663],[17.6508,50.27403],[17.65079,50.27402],[17.62063,50.27671],[17.59212,50.27925],[17.45619,50.271],[17.45612,50.271],[17.36469,50.28114],[17.33875,50.28402],[17.35445,50.30815],[17.28164,50.3184],[17.22043,50.34879],[17.18506,50.39033],[17.11153,50.40525],[17.07026,50.40705],[17.05308,50.4078],[16.99833,50.42815],[16.90883,50.44899],[16.90882,50.44899],[16.86125,50.4092],[16.88825,50.39848],[16.90895,50.39026],[16.94004,50.31935],[17.00173,50.30228],[17.0161,50.26308],[17.0281,50.23034]],[[18.07172,49.72922],[18.06825,49.70804],[18.02096,49.69633],[18.00432,49.72048],[18.03524,49.7382],[18.07172,49.72922]]]]},"properties":{"name":"Herzogtum Ober- und Niederschlesien"}},
{"type":"Feature","geometry":{"type":"Polygon","coordinates":[[[12.84746,48.01904],[12.87238,47.96431],[12.93969,47.94125],[13.0051,47.84524],[12.9394,47.7809],[12.92745,47.76919],[12.90771,47.72164],[12.90772,47.72164],[12.97513,47.70676],[13.01727,47.72226],[13.02769,47.71635],[13.07629,47.68877],[13.09779,47.63912],[13.04045,47.57661],[13.04245,47.54724],[13.04616,47.49283],[13.04614,47.49283],[12.96203,47.47762],[12.96201,47.47762],[12.962,47.47763],[12.84868,47.54615],[12.80273,47.55123],[12.80683,47.60987],[12.75269,47.66808],[12.75268,47.66808],[12.65384,47.67234],[12.60519,47.67326],[12.57553,47.63331],[12.57551,47.63331],[12.57553,47.63331],[12.57237,47.60606],[12.64867,47.59093],[12.66718,47.57889],[12.63044,47.54948],[12.66202,47.50716],[12.70051,47.47706],[12.63072,47.46306],[12.63512,47.43511],[12.57734,47.39252],[12.50774,47.39362],[12.47917,47.36443],[12.49694,47.34414],[12.47664,47.32541],[12.43212,47.32703],[12.40721,47.3125],[12.3055,47.33152],[12.26559,47.3035],[12.22254,47.31314],[12.14069,47.28929],[12.1094,47.30582],[12.07845,47.2691],[12.11083,47.24139],[12.08262,47.1931],[12.09445,47.14494],[12.11145,47.13903],[12.13801,47.08025],[12.18988,47.09267],[12.26395,47.07323],[12.28521,47.09279],[12.36025,47.11357],[12.36121,47.1392],[12.4175,47.14197],[12.49203,47.15854],[12.54418,47.12897],[12.56954,47.13593],[12.62813,47.1172],[12.65623,47.09997],[12.66687,47.11999],[12.73016,47.13151],[12.73879,47.10014],[12.78477,47.09256],[12.82016,47.09738],[12.93727,47.07617],[12.96906,47.038],[13.07393,47.01302],[13.08107,47.02746],[13.24849,47.05087],[13.24978,47.08756],[13.30185,47.08707],[13.36306,47.09905],[13.40618,47.06918],[13.42756,47.08143],[13.52131,47.06846],[13.58103,47.05202],[13.63919,47.05564],[13.64864,47.03892],[13.69321,47.04134],[13.70614,46.99587],[13.74485,46.99447],[13.77026,46.97928],[13.78449,46.94341],[13.83207,46.9653],[13.86466,46.99591],[13.86389,47.021],[13.90578,47.07128],[13.88122,47.10874],[13.94247,47.1371],[13.99343,47.14168],[13.92259,47.17172],[13.90295,47.19504],[13.85011,47.23082],[13.86254,47.2537],[13.8213,47.26848],[13.80456,47.29267],[13.76056,47.26643],[13.72425,47.27822],[13.71147,47.25928],[13.67512,47.27464],[13.63142,47.27404],[13.59809,47.2935],[13.60361,47.33003],[13.58292,47.36868],[13.57409,47.42693],[13.5886,47.47295],[13.52064,47.49406],[13.47667,47.53041],[13.47869,47.56754],[13.50751,47.58777],[13.52295,47.61842],[13.48387,47.64127],[13.49899,47.66762],[13.53346,47.68372],[13.55115,47.714],[13.48338,47.72231],[13.43604,47.73856],[13.45136,47.8041],[13.38991,47.79461],[13.3484,47.81334],[13.28867,47.82646],[13.29284,47.86519],[13.27657,47.94667],[13.30765,47.96394],[13.34605,47.94443],[13.37358,47.96586],[13.29535,48.00728],[13.19865,47.97437],[13.16094,47.97503],[13.09493,47.99613],[13.0429,48.04106],[12.9717,48.02342],[12.93527,48.03517],[12.89205,47.99106],[12.85998,47.99651],[12.84746,48.01904]]]},"properties":{"name":"Herzogtum Salzburg"}},
{"type":"Feature","geometry":{"type":"Polygon","coordinates":[[[16.83663,50.19318],[16.81074,50.19032],[16.80356,50.17903],[16.78179,50.14482],[16.78178,50.14482],[16.70602,50.0968],[16.63435,50.11205],[16.60849,50.13081],[16.57077,50.15818],[16.56272,50.19823],[16.55833,50.22011],[16.54947,50.22508],[16.52349,50.23967],[16.52343,50.23973],[16.43654,50.32162],[16.43652,50.32164],[16.38496,50.32831],[16.36694,50.36913],[16.29989,50.38123],[16.20647,50.44046],[16.20644,50.44048],[16.2719,50.48425],[16.30136,50.49893],[16.31777,50.5071],[16.31889,50.50664],[16.34419,50.49617],[16.40113,50.52842],[16.40257,50.53426],[16.40943,50.5622],[16.42753,50.56908],[16.44161,50.57444],[16.41242,50.60201],[16.39278,50.61438],[16.3448,50.64458],[16.23251,50.66746],[16.21622,50.63304],[16.18051,50.64247],[16.10278,50.66299],[16.10277,50.66298],[16.06438,50.63137],[16.02483,50.59879],[16.02482,50.59878],[16.00164,50.61173],[15.99101,50.61767],[15.991,50.61767],[16.00443,50.67601],[15.97589,50.68904],[15.88739,50.67559],[15.83953,50.74724],[15.80386,50.74509],[15.69967,50.73879],[15.68029,50.75475],[15.64855,50.76213],[15.57793,50.77856],[15.55103,50.77756],[15.52406,50.77655],[15.47953,50.79079],[15.472,50.79629],[15.44822,50.81364],[15.44821,50.81364],[15.35956,50.78423],[15.35955,50.78423],[15.36834,50.82231],[15.34463,50.85596],[15.28266,50.89316],[15.29064,50.94874],[15.27927,50.9709],[15.27507,50.97908],[15.23259,50.99852],[15.17754,50.99424],[15.17212,51.02016],[15.10045,51.01235],[15.061,51.02013],[15.03585,51.02509],[15.00001,51.01509],[14.9851,51.01093],[14.97939,51.00376],[14.96833,50.98989],[15.00458,50.94844],[15.00908,50.94329],[15.00198,50.87459],[15.00198,50.87458],[14.98402,50.86855],[14.96309,50.86151],[14.82948,50.87358],[14.79897,50.82239],[14.75946,50.82314],[14.71726,50.82394],[14.66187,50.85119],[14.62267,50.85832],[14.6435,50.93134],[14.6435,50.93135],[14.5811,50.91536],[14.5605,50.92496],[14.59752,50.96697],[14.57855,50.99875],[14.45336,51.03691],[14.42664,51.02695],[14.40707,51.01966],[14.3878,51.03073],[14.36315,51.04489],[14.30291,51.0568],[14.28282,51.0256],[14.25861,50.988],[14.32381,50.95038],[14.37126,50.94074],[14.40539,50.9338],[14.38113,50.89877],[14.30726,50.88491],[14.30459,50.88441],[14.28806,50.88961],[14.27006,50.89527],[14.25577,50.89229],[14.23767,50.88851],[14.22755,50.87754],[14.20505,50.85315],[14.20502,50.85314],[14.04908,50.80888],[14.00115,50.81405],[13.97132,50.81727],[13.94446,50.79737],[13.89861,50.7923],[13.88467,50.73845],[13.87122,50.73513],[13.82719,50.72428],[13.79856,50.73424],[13.79092,50.7369],[13.79091,50.7369],[13.70798,50.71709],[13.6669,50.73213],[13.66476,50.73291],[13.66475,50.73291],[13.55728,50.71442],[13.54335,50.6773],[13.53781,50.66943],[13.51997,50.64412],[13.41908,50.61016],[13.39669,50.62343],[13.37176,50.63821],[13.37175,50.6382],[13.24091,50.58323],[13.24087,50.58322],[13.22471,50.56017],[13.18875,50.50889],[13.17897,50.50821],[13.06948,50.50056],[13.03204,50.50864],[13.01778,50.44348],[13.01777,50.44348],[12.94414,50.41174],[12.94412,50.41173],[12.81985,50.45934],[12.77504,50.44366],[12.73658,50.43021],[12.70736,50.4045],[12.6762,50.41387],[12.61314,50.40647],[12.51596,50.39508],[12.49426,50.35416],[12.49424,50.35415],[12.43352,50.32229],[12.43351,50.32229],[12.39984,50.32112],[12.35216,50.26181],[12.3303,50.23383],[12.33359,50.20214],[12.33665,50.17258],[12.2932,50.17658],[12.28958,50.17691],[12.2809,50.18731],[12.27422,50.19533],[12.27746,50.20297],[12.28669,50.22475],[12.24164,50.24378],[12.24453,50.26735],[12.2022,50.308],[12.1444,50.32142],[12.11919,50.29892],[12.13824,50.27502],[12.09062,50.25238],[12.13319,50.23252],[12.17533,50.21286],[12.20025,50.18528],[12.21577,50.16811],[12.21577,50.1681],[12.2001,50.11048],[12.22149,50.10441],[12.22902,50.10228],[12.36561,50.02236],[12.41322,50.00264],[12.4353,49.9935],[12.45896,49.99476],[12.49402,49.96986],[12.49091,49.96305],[12.47834,49.93553],[12.54846,49.89869],[12.52191,49.88163],[12.5219,49.88162],[12.47299,49.83358],[12.4739,49.78848],[12.43407,49.77353],[12.40463,49.76247],[12.40464,49.76246],[12.44274,49.70379],[12.52196,49.68641],[12.51739,49.64489],[12.51857,49.64198],[12.52819,49.6182],[12.56026,49.61909],[12.57085,49.5694],[12.57605,49.56038],[12.58891,49.53809],[12.64422,49.52251],[12.65552,49.43466],[12.70873,49.42467],[12.75769,49.39466],[12.80254,49.34169],[12.88017,49.3504],[12.95004,49.3429],[13.00764,49.30647],[13.02902,49.30458],[13.03295,49.27291],[13.03406,49.26395],[13.03563,49.26339],[13.08104,49.24716],[13.12936,49.19698],[13.1298,49.19666],[13.17682,49.16163],[13.23593,49.11371],[13.25282,49.11619],[13.28233,49.12052],[13.32539,49.09852],[13.34432,49.08885],[13.37437,49.06718],[13.39738,49.05059],[13.40875,49.006],[13.40948,49.00312],[13.40749,48.99846],[13.40274,48.98736],[13.49581,48.94145],[13.50729,48.96898],[13.53249,48.96666],[13.5931,48.96108],[13.67638,48.87861],[13.67641,48.87858],[13.73681,48.88089],[13.7423,48.87263],[13.76561,48.83756],[13.8397,48.77144],[13.89562,48.75708],[13.95592,48.71448],[14.00324,48.70855],[14.05873,48.65845],[14.01154,48.63926],[14.05411,48.60413],[14.18378,48.59392],[14.27035,48.58163],[14.32826,48.55284],[14.38308,48.56891],[14.3856,48.59264],[14.43097,48.58928],[14.47006,48.64817],[14.49522,48.62237],[14.56223,48.60398],[14.61071,48.62854],[14.66328,48.58229],[14.69111,48.58458],[14.72113,48.60195],[14.71255,48.64984],[14.73537,48.69867],[14.77464,48.7114],[14.81253,48.76329],[14.81563,48.79613],[14.85979,48.82499],[14.89492,48.91385],[14.94643,48.88983],[14.99146,48.89733],[14.97643,48.97073],[15.02125,49.0211],[15.06439,48.99972],[15.15493,48.99417],[15.16912,48.96648],[15.26978,48.95781],[15.28915,48.99292],[15.28688,49.01521],[15.25039,49.04697],[15.20951,49.05743],[15.24195,49.09044],[15.25668,49.12753],[15.23654,49.13262],[15.23321,49.16805],[15.26329,49.19878],[15.24779,49.21262],[15.20543,49.2079],[15.1669,49.21719],[15.23515,49.2477],[15.27117,49.2548],[15.33068,49.28277],[15.34913,49.31712],[15.41306,49.32008],[15.46994,49.34628],[15.51458,49.41013],[15.55083,49.41764],[15.58406,49.40585],[15.63442,49.42299],[15.65179,49.45358],[15.70429,49.44383],[15.78429,49.45358],[15.8198,49.47846],[15.85801,49.5414],[15.88776,49.55494],[15.87018,49.58809],[15.94232,49.59054],[15.98999,49.61467],[15.96638,49.6395],[15.99689,49.69625],[16.05398,49.70861],[16.09156,49.67199],[16.1395,49.69151],[16.19279,49.67839],[16.22823,49.63619],[16.34762,49.61346],[16.40387,49.57188],[16.4171,49.59543],[16.49398,49.60981],[16.53063,49.60673],[16.51428,49.65512],[16.44682,49.69925],[16.35662,49.7034],[16.38879,49.74308],[16.40292,49.78315],[16.46607,49.79781],[16.50597,49.78647],[16.50888,49.76029],[16.57461,49.73849],[16.58035,49.76824],[16.564,49.78638],[16.57057,49.83446],[16.66291,49.87061],[16.6443,49.89486],[16.68288,49.90295],[16.68387,49.92118],[16.73511,49.96862],[16.70923,50.00103],[16.69225,50.05153],[16.79298,50.06914],[16.82277,50.08536],[16.79961,50.12826],[16.83663,50.19318]]]},"properties":{"name":"Königreich Böhmen"}},
{"type":"Feature","geometry":{"type":"MultiPolygon","coordinates":[[[[18.53448,49.48452],[18.52883,49.47278],[18.46794,49.45574],[18.44823,49.46213],[18.42261,49.50681],[18.36554,49.56381],[18.35496,49.61706],[18.36786,49.64786],[18.32905,49.68988],[18.29551,49.74694],[18.30769,49.76152],[18.27862,49.79831],[18.29728,49.83404],[18.28074,49.86929],[18.28072,49.86929],[18.24266,49.86037],[18.22132,49.83434],[18.22238,49.80554],[18.1933,49.75929],[18.12135,49.71748],[18.01225,49.67715],[17.98932,49.68612],[17.97266,49.73266],[17.92451,49.71285],[17.89688,49.75992],[17.86178,49.78352],[17.84541,49.74047],[17.86954,49.73135],[17.86312,49.66635],[17.87889,49.63186],[17.86531,49.60513],[17.83436,49.60701],[17.77897,49.63258],[17.73768,49.67998],[17.75354,49.7167],[17.69386,49.72822],[17.679,49.76298],[17.64672,49.78655],[17.64046,49.81591],[17.65442,49.89217],[17.61391,49.89116],[17.50425,49.9125],[17.46601,49.955],[17.40128,49.97418],[17.40312,49.93931],[17.35373,49.95288],[17.32642,49.98055],[17.31213,50.01657],[17.28496,50.02003],[17.23274,50.06065],[17.21992,50.10285],[17.1601,50.12111],[17.07459,50.19969],[17.0281,50.23034],[17.01194,50.22316],[16.99723,50.21662],[16.89888,50.22319],[16.87926,50.20398],[16.87225,50.19712],[16.87224,50.19712],[16.83663,50.19318],[16.79961,50.12826],[16.82277,50.08536],[16.79298,50.06914],[16.69225,50.05153],[16.70923,50.00103],[16.73511,49.96862],[16.68387,49.92118],[16.68288,49.90295],[16.6443,49.89486],[16.66291,49.87061],[16.57057,49.83446],[16.564,49.78638],[16.58035,49.76824],[16.57461,49.73849],[16.50888,49.76029],[16.50597,49.78647],[16.46607,49.79781],[16.40292,49.78315],[16.38879,49.74308],[16.35662,49.7034],[16.44682,49.69925],[16.51428,49.65512],[16.53063,49.60673],[16.49398,49.60981],[16.4171,49.59543],[16.40387,49.57188],[16.34762,49.61346],[16.22823,49.63619],[16.19279,49.67839],[16.1395,49.69151],[16.09156,49.67199],[16.05398,49.70861],[15.99689,49.69625],[15.96638,49.6395],[15.98999,49.61467],[15.94232,49.59054],[15.87018,49.58809],[15.88776,49.55494],[15.85801,49.5414],[15.8198,49.47846],[15.78429,49.45358],[15.70429,49.44383],[15.65179,49.45358],[15.63442,49.42299],[15.58406,49.40585],[15.55083,49.41764],[15.51458,49.41013],[15.46994,49.34628],[15.41306,49.32008],[15.34913,49.31712],[15.33068,49.28277],[15.27117,49.2548],[15.23515,49.2477],[15.1669,49.21719],[15.20543,49.2079],[15.24779,49.21262],[15.26329,49.19878],[15.23321,49.16805],[15.23654,49.13262],[15.25668,49.12753],[15.24195,49.09044],[15.20951,49.05743],[15.25039,49.04697],[15.28688,49.01521],[15.28915,48.99292],[15.32171,48.97611],[15.36705,48.98171],[15.41421,48.95538],[15.50117,48.93698],[15.51327,48.91404],[15.57801,48.8963],[15.61958,48.89577],[15.68645,48.85725],[15.75369,48.85221],[15.77952,48.87489],[15.828,48.87108],[15.8645,48.8522],[15.95738,48.82363],[15.94964,48.80525],[15.99219,48.77999],[16.09058,48.74715],[16.15386,48.74826],[16.36483,48.72799],[16.40655,48.74147],[16.4628,48.80521],[16.51552,48.80271],[16.54061,48.81403],[16.59338,48.78259],[16.63451,48.78639],[16.69336,48.77665],[16.87044,48.78561],[16.86947,48.76034],[16.88754,48.71656],[16.91865,48.69257],[16.97939,48.68169],[17.04427,48.76525],[17.08922,48.78493],[17.1077,48.82935],[17.157,48.84727],[17.2003,48.87864],[17.27865,48.85955],[17.36321,48.81369],[17.39664,48.81326],[17.45168,48.84707],[17.52092,48.81285],[17.59738,48.82875],[17.62977,48.85406],[17.70538,48.86163],[17.78466,48.92549],[17.88584,48.92842],[17.91371,49.01074],[17.93295,49.02397],[18.02351,49.02101],[18.07049,49.03826],[18.11592,49.08972],[18.10743,49.13404],[18.13085,49.18878],[18.15497,49.21642],[18.1479,49.24973],[18.18497,49.27061],[18.18486,49.28715],[18.36624,49.32459],[18.41519,49.3674],[18.43292,49.39329],[18.47704,49.41064],[18.50589,49.4433],[18.548,49.47092],[18.53448,49.48452]]],[[[18.07172,49.72922],[18.03524,49.7382],[18.00432,49.72048],[18.02096,49.69633],[18.06825,49.70804],[18.07172,49.72922]]]]},"properties":{"name":"Markgrafschaft Mähren"}},
{"type":"Feature","geometry":{"type":"Polygon","coordinates":[[[13.89904,45.64407],[13.8973,45.67161],[13.86717,45.69122],[13.84496,45.68133],[13.80395,45.70435],[13.73982,45.70817],[13.66794,45.7409],[13.63232,45.76588],[13.57372,45.77769],[13.53825,45.76063],[13.63232,45.76588],[13.75199,45.68054],[13.71875,45.60583],[13.77387,45.60398],[13.80941,45.6114],[13.84161,45.63173],[13.87161,45.6275],[13.89904,45.64407]]]},"properties":{"name":"Triest mit Gebiet"}},
{"type":"Feature","geometry":{"type":"Polygon","coordinates":[[[13.8397,48.77144],[13.82915,48.75176],[13.81891,48.73264],[13.82382,48.62046],[13.82379,48.62042],[13.77155,48.56371],[13.74417,48.53398],[13.72464,48.51278],[13.72455,48.51281],[13.58508,48.56626],[13.52102,48.5908],[13.43677,48.55446],[13.43674,48.55445],[13.44923,48.52232],[13.45386,48.51041],[13.42539,48.45813],[13.42539,48.45812],[13.4119,48.38043],[13.4119,48.38042],[13.37386,48.35717],[13.30262,48.31364],[13.17328,48.29785],[13.10006,48.27822],[13.021,48.25701],[13.02098,48.25701],[12.95129,48.20853],[12.86559,48.19915],[12.8452,48.16641],[12.79743,48.13873],[12.74794,48.11006],[12.7563,48.07896],[12.75697,48.07646],[12.84744,48.01908],[12.84746,48.01904],[12.85998,47.99651],[12.89205,47.99106],[12.93527,48.03517],[12.9717,48.02342],[13.0429,48.04106],[13.09493,47.99613],[13.16094,47.97503],[13.19865,47.97437],[13.29535,48.00728],[13.37358,47.96586],[13.34605,47.94443],[13.30765,47.96394],[13.27657,47.94667],[13.29284,47.86519],[13.28867,47.82646],[13.3484,47.81334],[13.38991,47.79461],[13.45136,47.8041],[13.43604,47.73856],[13.48338,47.72231],[13.55115,47.714],[13.53346,47.68372],[13.49899,47.66762],[13.48387,47.64127],[13.52295,47.61842],[13.50751,47.58777],[13.47869,47.56754],[13.47667,47.53041],[13.52064,47.49406],[13.5886,47.47295],[13.70607,47.46379],[13.76074,47.52017],[13.75568,47.55319],[13.73518,47.57727],[13.69217,47.59013],[13.70803,47.66541],[13.73818,47.67471],[13.75539,47.70035],[13.86171,47.726],[13.91943,47.7047],[13.95213,47.71002],[14.00235,47.703],[14.05549,47.66735],[14.04654,47.62655],[14.065,47.61593],[14.20549,47.65238],[14.26396,47.6103],[14.32622,47.60837],[14.33504,47.61812],[14.43675,47.65237],[14.48515,47.68158],[14.50833,47.67928],[14.53275,47.71408],[14.64399,47.72745],[14.69627,47.76581],[14.73819,47.74872],[14.71119,47.78963],[14.71005,47.85071],[14.75639,47.86641],[14.77239,47.88317],[14.72965,47.92377],[14.61013,47.94886],[14.58448,47.96713],[14.49186,48.01069],[14.45583,48.04502],[14.45429,48.08067],[14.46918,48.10047],[14.46903,48.14745],[14.48471,48.17449],[14.4931,48.22546],[14.5258,48.24015],[14.58432,48.22411],[14.64319,48.17516],[14.68809,48.157],[14.7403,48.17399],[14.83893,48.19163],[14.85639,48.22554],[14.94077,48.2305],[14.9916,48.25653],[14.97961,48.32344],[14.94432,48.32383],[14.96432,48.38821],[14.93785,48.42368],[14.87786,48.45428],[14.86699,48.47985],[14.91199,48.50746],[14.89573,48.52333],[14.79219,48.55915],[14.72509,48.56207],[14.69111,48.58458],[14.66328,48.58229],[14.61071,48.62854],[14.56223,48.60398],[14.49522,48.62237],[14.47006,48.64817],[14.43097,48.58928],[14.3856,48.59264],[14.38308,48.56891],[14.32826,48.55284],[14.27035,48.58163],[14.18378,48.59392],[14.05411,48.60413],[14.01154,48.63926],[14.05873,48.65845],[14.00324,48.70855],[13.95592,48.71448],[13.89562,48.75708],[13.8397,48.77144]]]},"properties":{"name":"Erzherzogtum Österreich ob der Enns"}},
{"type":"Feature","geometry":{"type":"MultiPolygon","coordinates":[[[[17.35032,45.94173],[17.31397,45.93242],[17.29014,45.90281],[17.24435,45.90387],[17.19029,45.84437],[17.25286,45.81404],[17.27858,45.81026],[17.27916,45.77907],[17.34795,45.76327],[17.37963,45.72338],[17.39463,45.75538],[17.44705,45.76699],[17.46311,45.72338],[17.43368,45.72694],[17.36922,45.68773],[17.34198,45.69512],[17.28126,45.66218],[17.15293,45.67199],[17.04386,45.62539],[16.95369,45.56985],[16.92836,45.50369],[16.95408,45.45677],[17.02155,45.45596],[17.08091,45.49367],[17.13844,45.45011],[17.11925,45.4163],[17.33317,45.36699],[17.30123,45.29817],[17.36828,45.2942],[17.38052,45.27257],[17.5091,45.31151],[17.6199,45.2699],[17.69395,45.27173],[17.72037,45.2126],[17.75112,45.2355],[17.82777,45.2152],[17.8923,45.28832],[18.02769,45.28354],[18.17518,45.24355],[18.21465,45.21839],[18.26892,45.22448],[18.36392,45.24893],[18.4521,45.25585],[18.51181,45.24768],[18.51058,45.29283],[18.63237,45.31437],[18.63401,45.33123],[18.70788,45.32168],[18.73077,45.30922],[18.82945,45.32565],[18.84358,45.29265],[18.92621,45.27711],[19.02217,45.20255],[19.07416,45.18752],[19.06298,45.15156],[19.13904,45.13035],[19.16261,45.14752],[19.2971,45.07552],[19.37175,45.05088],[19.3946,45.06033],[19.49917,45.04943],[19.66056,45.01508],[19.82481,44.94494],[19.80727,44.91208],[19.81413,44.88776],[19.84689,44.84882],[19.99355,44.83436],[20.00612,44.87215],[19.98815,44.89331],[19.94697,44.91075],[19.95546,44.94301],[20.02253,44.95282],[20.02008,44.99976],[20.09493,45.01213],[20.13521,45.04678],[20.12851,45.08527],[20.09064,45.12706],[20.04542,45.11645],[19.98772,45.12258],[19.94341,45.14639],[19.89481,45.15383],[19.85043,45.23364],[19.8055,45.22001],[19.71465,45.23209],[19.5727,45.21307],[19.54233,45.25214],[19.48916,45.23916],[19.33913,45.23107],[19.26007,45.24298],[19.27596,45.27454],[19.19785,45.26462],[19.10318,45.3],[19.08103,45.3414],[19.02438,45.34406],[18.96993,45.37641],[18.98462,45.39837],[19.0264,45.40454],[19.02656,45.42447],[18.9888,45.44471],[18.99484,45.48918],[19.03054,45.48733],[19.05065,45.48484],[19.10283,45.50487],[19.06999,45.53237],[19.03395,45.5348],[19.02743,45.5534],[18.9504,45.53322],[18.87551,45.55267],[18.76598,45.54397],[18.74106,45.56327],[18.68222,45.56391],[18.62873,45.58055],[18.58353,45.61619],[18.52763,45.63715],[18.51382,45.68765],[18.42311,45.68508],[18.38085,45.70377],[18.3713,45.72502],[18.33064,45.72541],[18.33594,45.7526],[18.24337,45.76087],[18.23151,45.77945],[18.18838,45.78789],[18.11806,45.78436],[18.08231,45.76437],[18.02592,45.7772],[17.9952,45.79646],[17.92999,45.78592],[17.90438,45.79274],[17.85629,45.77005],[17.82939,45.80919],[17.75882,45.81185],[17.74646,45.82752],[17.67306,45.83463],[17.62372,45.90271],[17.56923,45.93684],[17.53412,45.934],[17.4349,45.95023],[17.43742,45.92887],[17.39232,45.9297],[17.35032,45.94173]]],[[[14.44843,45.32039],[14.46425,45.33792],[14.43314,45.3849],[14.39817,45.36132],[14.39056,45.33408],[14.44843,45.32039]]]]},"properties":{"name":"Freie Stadt Fiume mit Gebiet"}},
{"type":"Feature","geometry":{"type":"Polygon","coordinates":[[[10.19512,47.27485],[10.20681,47.33865],[10.16889,47.37118],[10.16596,47.37148],[10.11866,47.37637],[10.11078,47.38215],[10.08715,47.39947],[10.08827,47.40135],[10.10452,47.42872],[10.07465,47.46019],[10.04552,47.49087],[10.01818,47.48994],[9.99649,47.48921],[9.95204,47.53646],[9.95203,47.53646],[9.89696,47.54124],[9.8681,47.54374],[9.81618,47.54825],[9.81617,47.54825],[9.76781,47.59004],[9.73656,47.53483],[9.65193,47.49098],[9.59628,47.46215],[9.62622,47.44509],[9.64296,47.43555],[9.674,47.3816],[9.62948,47.36657],[9.62549,47.36522],[9.58818,47.31794],[9.52898,47.27054],[9.56768,47.24128],[9.55126,47.22362],[9.5852,47.20511],[9.57922,47.1916],[9.57282,47.17714],[9.62479,47.13217],[9.62568,47.12729],[9.63364,47.0834],[9.63191,47.08191],[9.60724,47.06076],[9.62688,47.06005],[9.67958,47.05815],[9.71846,47.04336],[9.78212,47.03795],[9.7823,47.03787],[9.83824,47.01207],[9.85399,47.01904],[9.86173,47.02247],[9.88794,46.99227],[9.88841,46.99173],[9.87065,46.96275],[9.87282,46.95283],[9.87671,46.93508],[9.93801,46.9124],[9.94201,46.91165],[10.02508,46.89605],[10.0572,46.86105],[10.10754,46.84223],[10.13344,46.84898],[10.14524,46.85205],[10.13179,46.8893],[10.09829,46.9374],[10.12251,46.98051],[10.15794,46.99738],[10.12755,47.03422],[10.15451,47.05095],[10.12059,47.0975],[10.17867,47.12988],[10.21017,47.15817],[10.20879,47.20238],[10.18989,47.23285],[10.19512,47.27484],[10.19512,47.27485]]]},"properties":{"name":"Land Vorarlberg"}},
{"type":"Feature","geometry":{"type":"Polygon","coordinates":[[[13.58457,46.43474],[13.64503,46.44452],[13.73816,46.43993],[13.81226,46.40813],[13.82688,46.3633],[13.79182,46.35785],[13.74347,46.3362],[13.72628,46.2972],[13.75833,46.26009],[13.81059,46.23829],[13.86896,46.22684],[13.99355,46.23668],[14.00675,46.2294],[13.977,46.1799],[14.07336,46.16576],[14.06865,46.14867],[14.01994,46.12736],[14.00159,46.09074],[14.03359,46.06619],[13.97732,46.04748],[13.96442,46.06311],[13.90058,46.06537],[13.86674,46.04216],[13.87252,45.98071],[13.90892,45.96953],[13.94029,45.9411],[13.90455,45.89619],[13.86851,45.87145],[13.90547,45.81462],[13.93676,45.79311],[13.9138,45.77168],[13.97148,45.73281],[13.96658,45.71896],[14.01345,45.69046],[14.00641,45.66509],[14.03574,45.64867],[14.07874,45.65536],[14.08379,45.63141],[14.09778,45.6136],[14.14924,45.60584],[14.16296,45.55816],[14.23526,45.52475],[14.25078,45.52768],[14.32366,45.50909],[14.35328,45.54468],[14.42618,45.50649],[14.47657,45.53467],[14.51479,45.60719],[14.53578,45.6139],[14.57896,45.66541],[14.6083,45.65816],[14.59545,45.62747],[14.65298,45.59176],[14.68107,45.58852],[14.72137,45.53409],[14.80376,45.49528],[14.8172,45.45929],[14.91175,45.48],[14.91318,45.51769],[14.93198,45.52922],[14.98786,45.49642],[15.02547,45.48573],[15.08631,45.48285],[15.08424,45.46795],[15.13784,45.44478],[15.16571,45.42151],[15.22577,45.42635],[15.24416,45.45334],[15.27411,45.46624],[15.32905,45.45316],[15.35937,45.477],[15.30611,45.48608],[15.32871,45.513],[15.30084,45.53804],[15.29856,45.58455],[15.30827,45.61421],[15.35112,45.64699],[15.39056,45.63732],[15.39181,45.6671],[15.33946,45.71454],[15.31909,45.69206],[15.28821,45.69239],[15.25837,45.72484],[15.30087,45.7544],[15.417,45.79488],[15.46349,45.7938],[15.4788,45.82755],[15.52026,45.82115],[15.53785,45.84704],[15.58257,45.84725],[15.6318,45.8312],[15.70471,45.84441],[15.6775,45.86878],[15.62946,45.89708],[15.58145,45.90142],[15.55347,45.92423],[15.49717,45.94035],[15.4697,45.98677],[15.34267,45.99345],[15.26366,46.02432],[15.26628,46.04608],[15.20432,46.04727],[15.17187,46.08377],[15.09269,46.12237],[15.03181,46.12333],[14.99596,46.19546],[14.93178,46.18558],[14.90214,46.21867],[14.85405,46.25039],[14.75592,46.25083],[14.70474,46.25795],[14.70456,46.28462],[14.64043,46.33448],[14.63765,46.36433],[14.58748,46.35539],[14.56553,46.36747],[14.51904,46.3566],[14.40591,46.37262],[14.44355,46.42788],[14.43366,46.44428],[14.30773,46.43067],[14.28087,46.44166],[14.23741,46.43232],[14.19148,46.44114],[14.15396,46.43558],[14.11917,46.47849],[14.04654,46.49216],[14.00154,46.48485],[13.91602,46.52444],[13.79756,46.51182],[13.68741,46.52488],[13.64496,46.5148],[13.61251,46.49053],[13.58457,46.43474]]]},"properties":{"name":"Herzogtum Krain"}},
{"type":"Feature","geometry":{"type":"MultiPolygon","coordinates":[[[[16.23941,43.07793],[16.07979,43.07145],[16.11199,43.00776],[16.11199,43.00775],[16.21047,43.01864],[16.21048,43.01864],[16.25354,43.0575],[16.24717,43.06674],[16.23945,43.07793],[16.23941,43.07793]]],[[[16.2768,43.41165],[16.24231,43.38255],[16.38472,43.32597],[16.38472,43.32598],[16.32871,43.39575],[16.3287,43.39576],[16.2768,43.41165]]],[[[16.43986,43.39379],[16.43592,43.34839],[16.43229,43.30662],[16.48614,43.28525],[16.51401,43.27419],[16.48614,43.28525],[16.51401,43.27419],[16.56015,43.26872],[16.63755,43.25954],[16.85403,43.27117],[16.87868,43.29663],[16.89785,43.31642],[16.87189,43.32725],[16.81193,43.35226],[16.67731,43.37162],[16.60775,43.38163],[16.67731,43.37162],[16.60775,43.38163],[16.43986,43.39379]]],[[[15.39022,43.95734],[15.29784,43.97302],[15.30325,43.96305],[15.3083,43.95374],[15.34427,43.93393],[15.42053,43.89193],[15.4029,43.93],[15.39023,43.95734],[15.39022,43.95734]]],[[[14.99682,44.04655],[15.07226,43.95649],[15.07227,43.95648],[15.1162,43.9161],[15.11712,43.91526],[15.19552,43.86669],[15.22309,43.905],[15.05147,44.00828],[15.00956,44.08249],[15.00955,44.08251],[14.9801,44.09139],[14.9522,44.09981],[14.99682,44.04655]]],[[[14.9064,44.52153],[14.89969,44.49332],[14.8997,44.49331],[14.9803,44.45639],[14.98039,44.45631],[15.08691,44.36069],[15.08692,44.36069],[15.21223,44.31033],[15.24711,44.3482],[15.11865,44.4406],[15.0527,44.47774],[15.05192,44.47818],[15.05079,44.51453],[15.02971,44.52193],[14.99901,44.53271],[14.9573,44.56926],[14.90884,44.61171],[14.90881,44.6117],[14.83538,44.58633],[14.8354,44.58631],[14.9064,44.52153]]],[[[14.73855,44.81824],[14.70636,44.80613],[14.65683,44.78749],[14.69566,44.75755],[14.71725,44.76141],[14.74371,44.76613],[14.84495,44.69921],[14.84496,44.69921],[14.86639,44.72069],[14.73858,44.81822],[14.73855,44.81824]]],[[[18.53202,42.45036],[18.56613,42.45068],[18.56616,42.45068],[18.57136,42.44801],[18.59921,42.43373],[18.67267,42.45786],[18.69583,42.39869],[18.56512,42.43256],[18.56192,42.42139],[18.55654,42.40262],[18.60764,42.36771],[18.68269,42.38061],[18.70601,42.3224],[18.70602,42.32239],[18.77622,42.26813],[18.84345,42.2829],[18.84346,42.2829],[18.88912,42.27293],[18.90414,42.22245],[19.00195,42.15905],[19.01684,42.18215],[18.98732,42.21665],[18.95538,42.25397],[18.93684,42.30681],[18.93469,42.30789],[18.90903,42.32077],[18.84518,42.33549],[18.83364,42.35107],[18.80741,42.38648],[18.8311,42.46378],[18.8069,42.50619],[18.80175,42.54439],[18.73222,42.56213],[18.67884,42.57575],[18.64488,42.61415],[18.65,42.59673],[18.63764,42.58434],[18.62974,42.53263],[18.5125,42.49543],[18.51261,42.45842],[18.53202,42.45036]]],[[[16.82207,42.75367],[16.82425,42.73237],[16.82429,42.73237],[16.87699,42.73383],[16.92163,42.73506],[16.93742,42.76926],[16.93739,42.76926],[16.82079,42.76614],[16.82207,42.75367]]],[[[17.43282,42.78414],[17.40715,42.76197],[17.48894,42.74267],[17.58743,42.71942],[17.59268,42.75082],[17.43282,42.78414]]],[[[16.89471,42.89716],[16.93305,42.91165],[16.97576,42.92778],[16.97584,42.92777],[17.1174,42.90763],[17.11744,42.90762],[17.1505,42.95457],[17.15049,42.95457],[17.04408,42.98102],[16.85395,42.95765],[16.85394,42.95765],[16.69385,42.99439],[16.64778,42.94517],[16.63957,42.9364],[16.71597,42.91868],[16.77707,42.9045],[16.71597,42.91868],[16.77707,42.9045],[16.80964,42.90536],[16.85381,42.90652],[16.87988,42.90055],[16.89471,42.89716]]],[[[16.87386,43.1618],[16.7257,43.15824],[16.65106,43.2185],[16.65104,43.21852],[16.65102,43.21852],[16.5682,43.2214],[16.56819,43.2214],[16.45337,43.20887],[16.46589,43.1579],[16.46589,43.15789],[16.52396,43.14719],[16.556,43.14128],[16.663,43.12156],[16.80605,43.12589],[16.89044,43.11707],[16.93539,43.11237],[17.06091,43.13813],[16.95329,43.15175],[16.87386,43.1618]]],[[[18.45656,42.44965],[18.48368,42.45145],[18.44247,42.48114],[18.4369,42.56364],[18.3904,42.58921],[18.36639,42.61615],[18.28168,42.61722],[18.24406,42.6027],[18.1911,42.65516],[18.15917,42.6567],[18.14272,42.6797],[18.04156,42.74828],[18.01031,42.75258],[17.95017,42.79898],[17.88749,42.8147],[17.84446,42.90236],[17.80905,42.9171],[17.78724,42.89162],[17.72384,42.91922],[17.67566,42.9187],[17.64854,42.88849],[17.60295,42.91119],[17.5793,42.93707],[17.61859,42.94266],[17.6518,42.95911],[17.71207,42.973],[17.66498,43.04403],[17.64122,43.08916],[17.55401,43.13067],[17.47283,43.16399],[17.42694,43.18849],[17.42193,43.22961],[17.39658,43.24509],[17.35875,43.24963],[17.33211,43.26991],[17.26541,43.3728],[17.25178,43.40472],[17.28433,43.43565],[17.28249,43.46777],[17.22894,43.49707],[17.17538,43.49012],[17.14961,43.49566],[17.06308,43.55375],[17.03663,43.55927],[16.99055,43.59151],[16.97101,43.61805],[16.93179,43.64386],[16.87259,43.70655],[16.82615,43.73207],[16.80063,43.76274],[16.75275,43.76966],[16.72465,43.79623],[16.71023,43.85485],[16.64697,43.88713],[16.58752,43.9432],[16.55016,43.95357],[16.53675,43.98634],[16.50223,44.02438],[16.43665,44.0307],[16.44217,44.06691],[16.42766,44.08318],[16.36953,44.08213],[16.35927,44.10197],[16.31846,44.11449],[16.3097,44.14322],[16.22881,44.20418],[16.19519,44.21391],[16.14111,44.21252],[16.12853,44.19433],[16.13239,44.13909],[16.07587,44.11849],[16.0507,44.13477],[15.99018,44.15229],[15.97928,44.1798],[15.91947,44.22236],[15.84978,44.22433],[15.6321,44.28841],[15.56778,44.2978],[15.5406,44.34418],[15.51839,44.35533],[15.39205,44.38489],[15.32034,44.41722],[15.29497,44.38501],[15.28974,44.35859],[15.40654,44.31662],[15.40658,44.31661],[15.40666,44.31656],[15.48197,44.2683],[15.51118,44.24958],[15.51115,44.24958],[15.41182,44.25516],[15.32728,44.2931],[15.28469,44.27986],[15.24794,44.26843],[15.21296,44.25756],[15.14031,44.19513],[15.20922,44.144],[15.29517,44.06772],[15.38508,43.98793],[15.41154,43.96444],[15.46613,43.916],[15.51101,43.90612],[15.6208,43.84381],[15.6208,43.8438],[15.6097,43.80947],[15.60971,43.80947],[15.66845,43.79417],[15.66846,43.79417],[15.74153,43.75359],[15.78396,43.75431],[15.83733,43.72753],[15.89346,43.69937],[15.89347,43.69936],[15.95,43.63997],[15.92666,43.63219],[15.91156,43.62716],[15.91156,43.62714],[15.93476,43.54441],[15.96742,43.53571],[15.97968,43.53244],[15.97969,43.53243],[16.05506,43.47579],[16.11053,43.47224],[16.16753,43.49016],[16.24335,43.514],[16.35708,43.54976],[16.35732,43.54983],[16.41605,43.54486],[16.4299,43.54369],[16.45891,43.49925],[16.45891,43.49924],[16.52953,43.50376],[16.55784,43.48078],[16.57933,43.46333],[16.57936,43.46332],[16.72564,43.41269],[16.89037,43.39461],[17.04862,43.27162],[17.04863,43.27161],[17.10978,43.20877],[17.10979,43.20876],[17.2637,43.146],[17.10979,43.20876],[17.2637,43.146],[17.27889,43.13981],[17.31787,43.11476],[17.35846,43.08867],[17.42594,43.04531],[17.48553,42.97787],[17.49293,42.96949],[17.50672,42.96082],[17.53749,42.94147],[17.48722,42.91057],[17.43848,42.95386],[17.26646,43.01071],[17.22216,43.01707],[17.16662,43.02504],[17.22216,43.01707],[17.16662,43.02504],[17.16661,43.02504],[17.01721,43.0051],[17.13615,42.97417],[17.21548,42.98124],[17.31523,42.93569],[17.3649,42.91302],[17.36492,42.91301],[17.37442,42.91281],[17.4164,42.91194],[17.42991,42.87568],[17.42991,42.87567],[17.42999,42.87565],[17.5513,42.84105],[17.70623,42.79686],[17.70628,42.79685],[17.70631,42.79685],[17.83275,42.79992],[17.83754,42.79583],[17.88097,42.75874],[17.88099,42.75873],[17.96687,42.7122],[18.04945,42.68349],[18.07684,42.64488],[18.16619,42.6211],[18.18538,42.61599],[18.22873,42.60446],[18.21335,42.57738],[18.25998,42.54366],[18.28832,42.52317],[18.45629,42.44974],[18.45649,42.44965],[18.45656,42.44965]]]]},"properties":{"name":"Königreich Dalmatien"}},
{"type":"Feature","geometry":{"type":"Polygon","coordinates":[[[13.51644,46.38297],[13.45896,46.36294],[13.43671,46.35519],[13.44921,46.33529],[13.42824,46.31583],[13.39243,46.2826],[13.3983,46.26519],[13.40558,46.24363],[13.44617,46.21271],[13.45461,46.21661],[13.47405,46.2256],[13.50395,46.22002],[13.5543,46.21063],[13.56552,46.19547],[13.5716,46.18726],[13.63322,46.18995],[13.66645,46.17464],[13.64708,46.14085],[13.61236,46.12119],[13.56606,46.09497],[13.5445,46.08955],[13.48392,46.04327],[13.48157,46.03635],[13.46391,45.98428],[13.43633,45.97266],[13.41663,45.93924],[13.37313,45.93464],[13.37216,45.93454],[13.36338,45.91313],[13.35972,45.90422],[13.34761,45.90091],[13.32538,45.89485],[13.30179,45.85309],[13.27726,45.80967],[13.27726,45.80966],[13.24931,45.76239],[13.2493,45.76238],[13.23976,45.70744],[13.23552,45.68305],[13.32969,45.67946],[13.36362,45.67307],[13.4243,45.66165],[13.4304,45.66596],[13.47145,45.69496],[13.50126,45.7031],[13.47145,45.69496],[13.50126,45.7031],[13.55406,45.71752],[13.53824,45.76063],[13.53825,45.76063],[13.57372,45.77769],[13.63232,45.76588],[13.66794,45.7409],[13.73982,45.70817],[13.80395,45.70435],[13.84496,45.68133],[13.86717,45.69122],[13.8973,45.67161],[13.89904,45.64407],[13.94804,45.64362],[13.94791,45.61111],[13.99504,45.62462],[14.06928,45.61764],[14.08379,45.63141],[14.07874,45.65536],[14.03574,45.64867],[14.00641,45.66509],[14.01345,45.69046],[13.96658,45.71896],[13.97148,45.73281],[13.9138,45.77168],[13.93676,45.79311],[13.90547,45.81462],[13.86851,45.87145],[13.90455,45.89619],[13.94029,45.9411],[13.90892,45.96953],[13.87252,45.98071],[13.86674,46.04216],[13.90058,46.06537],[13.96442,46.06311],[13.97732,46.04748],[14.03359,46.06619],[14.00159,46.09074],[14.01994,46.12736],[14.06865,46.14867],[14.07336,46.16576],[13.977,46.1799],[14.00675,46.2294],[13.99355,46.23668],[13.86896,46.22684],[13.81059,46.23829],[13.75833,46.26009],[13.72628,46.2972],[13.74347,46.3362],[13.79182,46.35785],[13.82688,46.3633],[13.81226,46.40813],[13.73816,46.43993],[13.64503,46.44452],[13.58457,46.43474],[13.57733,46.40907],[13.51644,46.38297]]]},"properties":{"name":"Gefürstete Grafschaft Görz und Gradisca"}},
{"type":"Feature","geometry":{"type":"Polygon","coordinates":[[[11.92874,46.24831],[11.89915,46.25891],[11.82694,46.28479],[11.83274,46.32523],[11.80173,46.33999],[11.77759,46.35149],[11.77758,46.35149],[11.82771,46.36723],[11.84375,46.42572],[11.85066,46.42836],[11.9307,46.45888],[11.94248,46.46995],[11.95036,46.47735],[11.99717,46.43677],[12.00981,46.44031],[12.02812,46.44544],[12.03028,46.45994],[12.0327,46.47616],[12.05838,46.49772],[12.07899,46.49317],[12.08661,46.49149],[12.12983,46.46177],[12.18723,46.49508],[12.21441,46.50246],[12.2369,46.50857],[12.24366,46.51799],[12.25664,46.53608],[12.24307,46.56605],[12.2256,46.57069],[12.19692,46.5783],[12.19425,46.58715],[12.19207,46.5944],[12.24385,46.62175],[12.25942,46.62997],[12.28321,46.61682],[12.29759,46.6229],[12.31505,46.63027],[12.32161,46.62867],[12.36049,46.61918],[12.37026,46.6219],[12.39065,46.62759],[12.43421,46.66791],[12.4375,46.66839],[12.50572,46.67824],[12.52527,46.66907],[12.55905,46.65322],[12.60133,46.65827],[12.62906,46.66158],[12.69114,46.65634],[12.72238,46.63937],[12.69114,46.65634],[12.69236,46.70144],[12.71452,46.73134],[12.75725,46.75032],[12.84127,46.74942],[12.89938,46.7768],[12.93205,46.76425],[12.96405,46.78547],[12.95406,46.80063],[12.84238,46.86057],[12.83717,46.91232],[12.80148,46.92245],[12.74483,46.96088],[12.72393,46.99527],[12.75389,47.02408],[12.71019,47.04865],[12.70052,47.07088],[12.65623,47.09997],[12.62813,47.1172],[12.56954,47.13593],[12.54418,47.12897],[12.49203,47.15854],[12.4175,47.14197],[12.36121,47.1392],[12.36025,47.11357],[12.28521,47.09279],[12.26395,47.07323],[12.18988,47.09267],[12.13801,47.08025],[12.11145,47.13903],[12.09445,47.14494],[12.08262,47.1931],[12.11083,47.24139],[12.07845,47.2691],[12.1094,47.30582],[12.14069,47.28929],[12.22254,47.31314],[12.26559,47.3035],[12.3055,47.33152],[12.40721,47.3125],[12.43212,47.32703],[12.47664,47.32541],[12.49694,47.34414],[12.47917,47.36443],[12.50774,47.39362],[12.57734,47.39252],[12.63512,47.43511],[12.63072,47.46306],[12.70051,47.47706],[12.66202,47.50716],[12.63044,47.54948],[12.66718,47.57889],[12.64867,47.59093],[12.57237,47.60606],[12.57553,47.63331],[12.57551,47.63331],[12.49899,47.62561],[12.49897,47.62561],[12.43041,47.69678],[12.40255,47.69196],[12.36261,47.68504],[12.33817,47.69692],[12.33811,47.69692],[12.24648,47.69954],[12.18296,47.70135],[12.17488,47.68912],[12.16836,47.67925],[12.20839,47.61549],[12.16322,47.60936],[12.14494,47.60688],[12.01024,47.62417],[12.01003,47.62414],[11.88642,47.60649],[11.77762,47.59095],[11.66983,47.58751],[11.63167,47.58629],[11.62341,47.58396],[11.60203,47.57793],[11.57215,47.51477],[11.44178,47.51809],[11.44174,47.51809],[11.44165,47.51803],[11.34573,47.45034],[11.34572,47.45034],[11.34545,47.45023],[11.22395,47.40138],[11.22394,47.40138],[11.20922,47.43316],[11.11328,47.3956],[10.97477,47.39861],[10.98343,47.43082],[10.95507,47.45227],[10.92864,47.47226],[10.92864,47.47227],[10.91654,47.51286],[10.88798,47.53728],[10.77586,47.51523],[10.75564,47.53614],[10.69164,47.5588],[10.59719,47.57003],[10.58439,47.55875],[10.55992,47.53718],[10.48733,47.54173],[10.43034,47.50412],[10.44325,47.49584],[10.46481,47.48202],[10.47528,47.43385],[10.42949,47.39636],[10.38546,47.3603],[10.3452,47.31534],[10.30446,47.30056],[10.24342,47.27841],[10.20297,47.27542],[10.19512,47.27484],[10.19512,47.27485],[10.19512,47.27484],[10.18989,47.23285],[10.20879,47.20238],[10.21017,47.15817],[10.17867,47.12988],[10.12059,47.0975],[10.15451,47.05095],[10.12755,47.03422],[10.15794,46.99738],[10.12251,46.98051],[10.09829,46.9374],[10.13179,46.8893],[10.14524,46.85205],[10.13344,46.84898],[10.14524,46.85205],[10.16623,46.85066],[10.24519,46.87703],[10.26205,46.86928],[10.31783,46.92695],[10.32553,46.94329],[10.34772,46.99035],[10.36149,46.99359],[10.38998,47.0003],[10.41602,46.98421],[10.42912,46.97612],[10.4178,46.95319],[10.41169,46.94083],[10.48615,46.91758],[10.46709,46.88931],[10.46786,46.85955],[10.46822,46.84547],[10.45271,46.81058],[10.449,46.80225],[10.42944,46.79731],[10.44202,46.76566],[10.44475,46.75879],[10.4,46.73445],[10.41914,46.71883],[10.38201,46.68535],[10.38509,46.6774],[10.40046,46.63772],[10.44059,46.63863],[10.44302,46.63868],[10.45347,46.63327],[10.48409,46.6174],[10.4875,46.59143],[10.48776,46.58947],[10.48099,46.55503],[10.47281,46.51343],[10.47282,46.51343],[10.5397,46.4927],[10.53971,46.4927],[10.59516,46.46193],[10.6266,46.42921],[10.63267,46.38865],[10.60863,46.37704],[10.59683,46.37134],[10.53081,46.36092],[10.52685,46.3555],[10.50312,46.32304],[10.50313,46.32304],[10.53206,46.31332],[10.56242,46.30312],[10.57064,46.22041],[10.53878,46.18421],[10.52732,46.17119],[10.53207,46.15247],[10.59422,46.14835],[10.58321,46.12363],[10.59303,46.11047],[10.5976,46.10434],[10.5653,46.04202],[10.53933,46.02419],[10.4884,46.03672],[10.48731,46.01842],[10.48331,45.95102],[10.5089,45.92345],[10.50876,45.92322],[10.49266,45.89658],[10.50434,45.87432],[10.50693,45.83168],[10.50742,45.82362],[10.51034,45.82413],[10.50742,45.82362],[10.51034,45.82413],[10.52603,45.82687],[10.53289,45.80973],[10.54735,45.7736],[10.56349,45.7598],[10.56659,45.75715],[10.56834,45.74612],[10.57152,45.72601],[10.65091,45.75095],[10.65291,45.75362],[10.66904,45.77511],[10.65243,45.79175],[10.64249,45.80172],[10.65356,45.83056],[10.72772,45.84303],[10.75692,45.82985],[10.76886,45.83127],[10.82666,45.83816],[10.8584,45.82555],[10.86636,45.82239],[10.87944,45.79396],[10.86585,45.74964],[10.85092,45.70093],[10.90874,45.67823],[10.95281,45.66093],[10.99519,45.69389],[11.00749,45.70346],[11.07551,45.69557],[11.13084,45.68915],[11.13257,45.69087],[11.17713,45.73516],[11.17648,45.78757],[11.19123,45.81496],[11.21241,45.83226],[11.24573,45.85947],[11.26347,45.92021],[11.35325,45.89127],[11.35918,45.94243],[11.37468,45.97564],[11.4644,45.98618],[11.50751,46.01806],[11.54799,46.01746],[11.56386,46.01722],[11.57076,45.99012],[11.57309,45.98098],[11.58961,45.97491],[11.62946,45.96027],[11.64944,45.96587],[11.6834,45.97539],[11.68738,45.98439],[11.68921,45.98853],[11.67361,46.02095],[11.66606,46.03665],[11.70394,46.05382],[11.68217,46.08913],[11.71563,46.10229],[11.75056,46.10273],[11.79847,46.10333],[11.87052,46.11545],[11.89005,46.11874],[11.92136,46.14926],[11.93647,46.19227],[11.93961,46.20121],[11.91157,46.22545],[11.92874,46.24831]]]},"properties":{"name":"Gefürstete Grafschaft Tirol"}},
{"type":"Feature","geometry":{"type":"Polygon","coordinates":[[[13.51644,46.38297],[13.57733,46.40907],[13.58457,46.43474],[13.61251,46.49053],[13.64496,46.5148],[13.68741,46.52488],[13.79756,46.51182],[13.91602,46.52444],[14.00154,46.48485],[14.04654,46.49216],[14.11917,46.47849],[14.15396,46.43558],[14.19148,46.44114],[14.23741,46.43232],[14.28087,46.44166],[14.30773,46.43067],[14.43366,46.44428],[14.44355,46.42788],[14.40591,46.37262],[14.51904,46.3566],[14.56553,46.36747],[14.58589,46.39138],[14.58627,46.43012],[14.66535,46.44959],[14.7212,46.44986],[14.76513,46.43059],[14.84943,46.41743],[14.89526,46.41993],[14.94413,46.43437],[14.96536,46.48473],[15.0028,46.49928],[15.01108,46.56673],[15.03952,46.59589],[15.1046,46.60599],[15.09188,46.64028],[15.02999,46.67761],[15.04355,46.71375],[15.02604,46.77183],[14.97626,46.78479],[14.98969,46.82162],[15.01256,46.83265],[15.0083,46.87747],[15.0282,46.90852],[14.99379,46.93841],[14.9667,46.98212],[14.90452,46.99996],[14.83029,47.04918],[14.77144,47.0395],[14.71632,47.01838],[14.52313,47.00946],[14.50367,47.01878],[14.45829,47.01237],[14.38658,46.98084],[14.38221,47.01429],[14.32923,47.02985],[14.2903,47.02606],[14.22479,47.03604],[14.20346,47.07618],[14.16226,47.05258],[14.13277,47.06233],[14.04841,47.00399],[14.01283,47.0037],[14.00697,46.97089],[13.95129,46.95663],[13.88137,46.91803],[13.82953,46.91321],[13.78449,46.94341],[13.77026,46.97928],[13.74485,46.99447],[13.70614,46.99587],[13.69321,47.04134],[13.64864,47.03892],[13.63919,47.05564],[13.58103,47.05202],[13.52131,47.06846],[13.42756,47.08143],[13.40618,47.06918],[13.36306,47.09905],[13.30185,47.08707],[13.24978,47.08756],[13.24849,47.05087],[13.08107,47.02746],[13.07393,47.01302],[12.96906,47.038],[12.93727,47.07617],[12.82016,47.09738],[12.78477,47.09256],[12.73879,47.10014],[12.73016,47.13151],[12.66687,47.11999],[12.65623,47.09997],[12.70052,47.07088],[12.71019,47.04865],[12.75389,47.02408],[12.72393,46.99527],[12.74483,46.96088],[12.80148,46.92245],[12.83717,46.91232],[12.84238,46.86057],[12.95406,46.80063],[12.96405,46.78547],[12.93205,46.76425],[12.89938,46.7768],[12.84127,46.74942],[12.75725,46.75032],[12.71452,46.73134],[12.69236,46.70144],[12.69114,46.65634],[12.72238,46.63937],[12.73061,46.6349],[12.75178,46.64568],[12.79507,46.64164],[12.79509,46.64162],[12.83351,46.6096],[12.83396,46.6096],[12.93307,46.61013],[13.03168,46.59654],[13.08491,46.60161],[13.10952,46.59594],[13.12595,46.59216],[13.21271,46.5268],[13.21502,46.52632],[13.30162,46.50823],[13.35184,46.48204],[13.36099,46.47727],[13.44223,46.47682],[13.45383,46.47676],[13.4531,46.47526],[13.43385,46.43547],[13.50097,46.40908],[13.50706,46.3988],[13.51644,46.38297]]]},"properties":{"name":"Herzogtum Kärnten"}},
{"type":"Feature","geometry":{"type":"Polygon","coordinates":[[[25.20407,47.21297],[25.29521,47.17682],[25.20407,47.21297],[25.26864,47.27935],[25.32441,47.28922],[25.37415,47.28918],[25.40224,47.3429],[25.40225,47.34291],[25.43291,47.3459],[25.44394,47.3597],[25.46085,47.38085],[25.50215,47.39188],[25.52569,47.40532],[25.54273,47.41504],[25.55389,47.45758],[25.6033,47.45618],[25.63916,47.41976],[25.62864,47.389],[25.67457,47.38115],[25.67427,47.35371],[25.6742,47.34758],[25.72329,47.3093],[25.82534,47.32379],[25.84943,47.37711],[25.85297,47.38493],[25.84704,47.39529],[25.82922,47.42641],[25.89477,47.46451],[25.93936,47.46834],[26.03024,47.47614],[26.08799,47.48329],[26.11295,47.4723],[26.14914,47.45636],[26.16635,47.46313],[26.16808,47.46381],[26.11814,47.51501],[26.14715,47.55646],[26.19655,47.57288],[26.20307,47.57505],[26.22957,47.56918],[26.25703,47.52611],[26.28579,47.50426],[26.31031,47.57048],[26.33076,47.56016],[26.34392,47.55352],[26.40655,47.55025],[26.44278,47.54836],[26.47555,47.55369],[26.50418,47.55834],[26.41867,47.6038],[26.374,47.59682],[26.34708,47.60732],[26.32503,47.61592],[26.28488,47.66031],[26.27153,47.67507],[26.27327,47.70504],[26.27629,47.75715],[26.19969,47.8077],[26.16576,47.83009],[26.13008,47.87162],[26.10876,47.92465],[26.12524,47.92309],[26.16824,47.91902],[26.17044,47.91643],[26.19989,47.88162],[26.23749,47.89886],[26.2375,47.89886],[26.225,47.91297],[26.21603,47.9231],[26.18418,47.94237],[26.15642,47.95916],[26.13497,48.01826],[26.11059,48.05813],[26.0755,48.09207],[26.05279,48.13353],[26.04762,48.16049],[26.04452,48.17665],[26.0703,48.18635],[26.1274,48.23603],[26.18501,48.23131],[26.19633,48.21696],[26.26638,48.20916],[26.28986,48.22682],[26.26334,48.23428],[26.19349,48.28621],[26.19083,48.31705],[26.18624,48.32585],[26.16142,48.37345],[26.06042,48.42834],[26.06143,48.43195],[26.06781,48.45475],[26.06284,48.45902],[26.04696,48.47265],[26.05059,48.49845],[26.05067,48.49898],[26.03074,48.54964],[26.03263,48.55116],[26.05705,48.57083],[26.06232,48.63871],[26.0329,48.64493],[26.01708,48.60932],[25.97653,48.62129],[25.92704,48.58818],[25.8759,48.6002],[25.80387,48.66851],[25.78081,48.6768],[25.7321,48.63372],[25.71403,48.66237],[25.62866,48.67196],[25.58468,48.63482],[25.58804,48.59024],[25.60795,48.53691],[25.59832,48.47246],[25.62116,48.38001],[25.54248,48.38478],[25.521,48.39916],[25.43955,48.4012],[25.31355,48.36902],[25.17704,48.24518],[25.15529,48.25032],[25.10774,48.22515],[25.1414,48.1942],[25.09728,48.18559],[25.0643,48.15533],[25.06695,48.13186],[24.99205,48.12012],[24.9915,48.0842],[24.91168,48.02665],[24.90855,47.99715],[24.92443,47.93917],[24.95685,47.91972],[24.94404,47.89745],[24.99656,47.85562],[24.98191,47.82684],[24.94796,47.79566],[24.92227,47.72683],[25.02377,47.66665],[25.05455,47.6572],[25.07597,47.57586],[25.1263,47.57158],[25.15946,47.5574],[25.18178,47.53273],[25.14314,47.4981],[25.13429,47.45682],[25.19639,47.40889],[25.16032,47.37135],[25.09865,47.36104],[25.07352,47.34248],[25.07753,47.31369],[25.03579,47.2948],[25.05243,47.26677],[25.08752,47.25016],[25.15808,47.24899],[25.20407,47.21297]]]},"properties":{"name":"Herzogtum Bukowina"}},
{"type":"Feature","geometry":{"type":"Polygon","coordinates":[[[24.92227,47.72683],[24.94796,47.79566],[24.98191,47.82684],[24.99656,47.85562],[24.94404,47.89745],[24.95685,47.91972],[24.92443,47.93917],[24.90855,47.99715],[24.91168,48.02665],[24.9915,48.0842],[24.99205,48.12012],[25.06695,48.13186],[25.0643,48.15533],[25.09728,48.18559],[25.1414,48.1942],[25.10774,48.22515],[25.15529,48.25032],[25.17704,48.24518],[25.31355,48.36902],[25.43955,48.4012],[25.521,48.39916],[25.54248,48.38478],[25.62116,48.38001],[25.59832,48.47246],[25.60795,48.53691],[25.58804,48.59024],[25.58468,48.63482],[25.62866,48.67196],[25.71403,48.66237],[25.7321,48.63372],[25.78081,48.6768],[25.80387,48.66851],[25.8759,48.6002],[25.92704,48.58818],[25.97653,48.62129],[26.01708,48.60932],[26.0329,48.64493],[26.06232,48.63871],[26.05705,48.57083],[26.03263,48.55116],[26.05705,48.57083],[26.09008,48.53941],[26.10288,48.54325],[26.12372,48.54951],[26.12382,48.56931],[26.11113,48.58348],[26.09571,48.6007],[26.14531,48.59699],[26.1474,48.54517],[26.18555,48.53059],[26.19855,48.52562],[26.22114,48.52948],[26.2764,48.53892],[26.28208,48.53117],[26.29573,48.51256],[26.35122,48.50798],[26.35581,48.5076],[26.37297,48.51851],[26.40958,48.5418],[26.40657,48.5445],[26.36221,48.58429],[26.33463,48.59569],[26.32551,48.59946],[26.32306,48.6122],[26.31821,48.63742],[26.27354,48.64723],[26.25231,48.66396],[26.24265,48.67158],[26.22992,48.70588],[26.24338,48.73322],[26.22065,48.83269],[26.21776,48.83658],[26.1997,48.86087],[26.20753,48.87482],[26.21198,48.88276],[26.18198,48.96541],[26.18749,48.99237],[26.1897,49.0032],[26.19072,49.0036],[26.21445,49.01282],[26.19579,49.04952],[26.1897,49.0615],[26.205,49.0992],[26.18547,49.20034],[26.19222,49.2144],[26.2071,49.2454],[26.2457,49.2443],[26.259,49.2925],[26.2303,49.3234],[26.2453,49.3682],[26.2352,49.3995],[26.1958,49.4317],[26.1937,49.4811],[26.1465,49.5147],[26.2161,49.5886],[26.2018,49.6079],[26.22147,49.6177],[26.2536,49.6337],[26.26464,49.64524],[26.2757,49.6568],[26.24244,49.69258],[26.1951,49.7093],[26.16222,49.75983],[26.08287,49.75522],[26.00892,49.75092],[25.93746,49.72502],[25.91414,49.74448],[25.87822,49.74106],[25.84465,49.73786],[25.74605,49.76219],[25.74544,49.76234],[25.71127,49.72994],[25.68065,49.73263],[25.67646,49.733],[25.63298,49.76108],[25.57941,49.79569],[25.56133,49.78917],[25.54371,49.78282],[25.508,49.81707],[25.4747,49.82593],[25.47384,49.85463],[25.47333,49.87175],[25.45354,49.89134],[25.4307,49.91394],[25.41925,49.93156],[25.40225,49.95773],[25.40226,49.98601],[25.33062,50.00961],[25.31807,50.01375],[25.285,50.052],[25.1991,50.1318],[25.21767,50.17879],[25.1706,50.21496],[25.20214,50.25701],[25.2036,50.25896],[25.2074,50.2806],[25.1632,50.2918],[25.13118,50.28432],[25.0587,50.3038],[25.05895,50.30956],[25.06031,50.34164],[25.0182,50.344],[24.95451,50.38207],[24.93936,50.34718],[24.86087,50.35184],[24.8515,50.3524],[24.84318,50.35123],[24.8515,50.3524],[24.84318,50.35123],[24.74801,50.3378],[24.7215,50.3702],[24.6732,50.3996],[24.51877,50.42767],[24.50282,50.45796],[24.49091,50.48057],[24.51349,50.47877],[24.55067,50.4758],[24.55327,50.51673],[24.5538,50.5251],[24.512,50.557],[24.5099,50.55614],[24.46756,50.53888],[24.41508,50.56233],[24.4035,50.5675],[24.40138,50.58949],[24.35284,50.59514],[24.3308,50.5977],[24.30209,50.56991],[24.27111,50.57731],[24.21189,50.59146],[24.20827,50.60102],[24.20445,50.61112],[24.17189,50.62901],[24.13744,50.64794],[24.09029,50.63531],[24.06429,50.62835],[24.07534,50.59883],[24.05595,50.58225],[24.09563,50.56462],[24.07286,50.53807],[24.05552,50.54338],[24.0401,50.54811],[23.94738,50.53038],[23.94108,50.5207],[23.91861,50.48614],[23.86047,50.46544],[23.83505,50.47511],[23.68368,50.46483],[23.68623,50.41139],[23.68028,50.40805],[23.65262,50.39252],[23.55252,50.40542],[23.51238,50.38102],[23.5062,50.38444],[23.47699,50.40061],[23.4622,50.39371],[23.44884,50.38747],[23.40444,50.40192],[23.26787,50.37324],[23.26328,50.37228],[23.23687,50.37989],[23.18157,50.39582],[23.09248,50.33195],[23.02369,50.28833],[22.93886,50.29242],[22.90617,50.29844],[22.88938,50.30153],[22.87877,50.29936],[22.85714,50.29494],[22.80782,50.29805],[22.74392,50.30207],[22.70527,50.29343],[22.70524,50.29344],[22.60869,50.32762],[22.65088,50.33706],[22.68658,50.34505],[22.68659,50.34505],[22.65974,50.35027],[22.62471,50.35709],[22.59561,50.34866],[22.53364,50.35512],[22.47897,50.32622],[22.44602,50.33088],[22.41118,50.3358],[22.40541,50.34071],[22.30854,50.42314],[22.3685,50.45009],[22.42164,50.48829],[22.44237,50.50319],[22.44571,50.59326],[22.30246,50.6179],[22.29707,50.62431],[22.27074,50.6556],[22.2193,50.67717],[22.19464,50.67336],[22.15904,50.66787],[22.10354,50.64033],[21.9958,50.67587],[22.00964,50.73516],[22.01213,50.74581],[21.98687,50.75844],[21.96189,50.77093],[21.89128,50.77795],[21.87068,50.78815],[21.8415,50.74863],[21.81076,50.68629],[21.73851,50.66983],[21.70266,50.62477],[21.70265,50.62476],[21.65704,50.57256],[21.60151,50.5196],[21.55528,50.52084],[21.45324,50.49425],[21.41627,50.4449],[21.34841,50.43401],[21.27958,50.40733],[21.27971,50.39895],[21.2798,50.39264],[21.19091,50.35251],[21.17681,50.35333],[21.14693,50.35506],[21.11376,50.34553],[21.0924,50.33939],[21.07412,50.32578],[21.06001,50.31528],[21.00871,50.3103],[20.98235,50.31302],[20.95398,50.31594],[20.94631,50.30906],[20.93466,50.2986],[20.90902,50.30357],[20.89326,50.30663],[20.84875,50.29272],[20.81949,50.29177],[20.80453,50.29128],[20.74058,50.25828],[20.80453,50.29128],[20.74058,50.25828],[20.72128,50.24833],[20.73032,50.23147],[20.70048,50.22233],[20.68482,50.21753],[20.60731,50.15139],[20.54045,50.14638],[20.4935,50.13373],[20.44439,50.14191],[20.40236,50.12654],[20.36828,50.11408],[20.33935,50.09195],[20.31618,50.09534],[20.29798,50.09801],[20.291,50.08955],[20.28301,50.07987],[20.27957,50.07904],[20.23335,50.06783],[20.19016,50.07521],[20.19033,50.11817],[20.17337,50.13303],[20.15695,50.14741],[20.0658,50.12126],[20.04303,50.12029],[20.02123,50.11936],[19.96889,50.13922],[19.94823,50.1401],[19.88606,50.14275],[19.85209,50.13617],[19.84324,50.13446],[19.83021,50.14637],[19.81509,50.16019],[19.78478,50.16733],[19.76333,50.17238],[19.70914,50.17038],[19.65937,50.20062],[19.63044,50.19628],[19.60483,50.19244],[19.58068,50.21199],[19.4836,50.22923],[19.4362,50.22561],[19.42979,50.22512],[19.32341,50.25916],[19.22089,50.25176],[19.161,50.23611],[19.16241,50.22713],[19.16443,50.2143],[19.23186,50.17326],[19.23969,50.16127],[19.25596,50.13635],[19.24081,50.11506],[19.212,50.07457],[19.19822,50.0684],[19.16924,50.05541],[19.10817,49.98597],[19.12155,49.9641],[19.01645,49.95243],[19.03382,49.91858],[19.04496,49.80498],[19.08308,49.77052],[19.0278,49.75891],[18.98503,49.73608],[18.99851,49.71462],[18.95315,49.67852],[18.99933,49.6518],[19.01772,49.62491],[18.9867,49.57226],[18.95986,49.5523],[18.94626,49.5173],[18.98744,49.42891],[18.98982,49.39821],[19.02743,49.39356],[19.05283,49.41569],[19.15163,49.4036],[19.21973,49.46964],[19.23487,49.50999],[19.26443,49.53207],[19.36817,49.53713],[19.37296,49.56777],[19.40935,49.59252],[19.44524,49.60076],[19.51764,49.57346],[19.59328,49.59392],[19.61923,49.62341],[19.68118,49.5745],[19.72991,49.5758],[19.75594,49.55769],[19.80005,49.56049],[19.85305,49.52835],[19.80395,49.47871],[19.78971,49.40593],[19.80463,49.36687],[19.80488,49.32333],[19.79218,49.30185],[19.8224,49.27733],[19.79231,49.26823],[19.76815,49.23643],[19.76294,49.20729],[19.84144,49.1935],[19.90229,49.21328],[19.93227,49.23646],[19.98149,49.23178],[20.02024,49.20156],[20.07568,49.17885],[20.10199,49.25294],[20.12512,49.27104],[20.15095,49.32067],[20.13269,49.33764],[20.0959,49.42545],[20.11402,49.45947],[20.18349,49.45087],[20.22948,49.46139],[20.26335,49.43872],[20.32443,49.42202],[20.33887,49.40113],[20.41084,49.3943],[20.42947,49.41591],[20.47249,49.4153],[20.51012,49.39341],[20.57639,49.37639],[20.61145,49.41372],[20.66488,49.40402],[20.69255,49.42],[20.74018,49.41653],[20.7458,49.3901],[20.79901,49.3631],[20.82529,49.33453],[20.8646,49.34834],[20.90982,49.30816],[20.93733,49.29827],[20.99385,49.31333],[20.98824,49.32828],[21.04562,49.3652],[21.07616,49.35965],[21.10406,49.37695],[21.05404,49.40398],[21.0472,49.41872],[21.12309,49.43666],[21.18125,49.40725],[21.2233,49.42538],[21.27741,49.46083],[21.30697,49.44807],[21.34441,49.45073],[21.39917,49.43489],[21.43391,49.41208],[21.52319,49.41996],[21.51847,49.42489],[21.56377,49.44102],[21.58738,49.43323],[21.63063,49.44723],[21.65996,49.41683],[21.7001,49.41791],[21.76347,49.3834],[21.8015,49.37997],[21.83967,49.39173],[21.85923,49.36804],[21.90335,49.35026],[21.96224,49.34839],[22.04174,49.25747],[22.02994,49.22523],[22.06927,49.21081],[22.14367,49.20058],[22.19281,49.17437],[22.23059,49.18067],[22.24641,49.15334],[22.31946,49.13544],[22.36314,49.14435],[22.41327,49.102],[22.45712,49.10341],[22.49945,49.08592],[22.58295,49.09739],[22.62748,49.07922],[22.63848,49.0604],[22.6834,49.03889],[22.7214,49.05262],[22.7658,49.05383],[22.83372,49.02605],[22.84734,49.00233],[22.8881,49.00706],[22.91781,48.9839],[22.87154,48.95626],[22.89376,48.90606],[22.96961,48.87396],[22.97187,48.84585],[23.0575,48.84675],[23.09752,48.86331],[23.13094,48.85159],[23.1779,48.8008],[23.20084,48.76045],[23.26854,48.76182],[23.31937,48.75404],[23.3613,48.7707],[23.37999,48.74207],[23.46334,48.72492],[23.5118,48.7339],[23.57146,48.72481],[23.70715,48.63782],[23.74532,48.64656],[23.79473,48.63939],[23.79057,48.59431],[23.85996,48.55272],[23.9073,48.56045],[23.92397,48.51393],[23.90722,48.48008],[23.92637,48.46398],[23.9818,48.4663],[23.99949,48.50578],[24.03223,48.50212],[24.07572,48.51302],[24.11495,48.53511],[24.13391,48.52496],[24.11426,48.49764],[24.14787,48.38899],[24.2577,48.3501],[24.2879,48.3795],[24.28363,48.40207],[24.35566,48.38027],[24.36048,48.35003],[24.41746,48.3318],[24.43143,48.31326],[24.48807,48.27982],[24.48416,48.24553],[24.53958,48.22447],[24.51067,48.18664],[24.50384,48.15275],[24.53043,48.12396],[24.5956,48.0908],[24.62703,48.0487],[24.5726,48.01366],[24.56527,47.96867],[24.67312,47.89627],[24.67157,47.86392],[24.70556,47.84076],[24.76309,47.83931],[24.8271,47.82071],[24.83565,47.78213],[24.87912,47.75357],[24.88546,47.72473],[24.92227,47.72683]]]},"properties":{"name":"Königreich Galizien und Lodomerien"}},
{"type":"Feature","geometry":{"type":"MultiPolygon","coordinates":[[[[14.39602,44.61991],[14.39961,44.68395],[14.34286,44.66394],[14.39216,44.59826],[14.39217,44.59824],[14.39017,44.59533],[14.36701,44.56155],[14.36702,44.56155],[14.41864,44.55669],[14.43983,44.5547],[14.44203,44.54186],[14.44426,44.52882],[14.4443,44.52879],[14.5223,44.47326],[14.54277,44.49532],[14.43504,44.56919],[14.435,44.56922],[14.39602,44.61991]]],[[[14.38313,44.90236],[14.30018,44.93275],[14.36734,44.79933],[14.3795,44.74844],[14.39225,44.69507],[14.39225,44.69506],[14.48826,44.60469],[14.54647,44.62982],[14.46682,44.71925],[14.46677,44.71931],[14.46892,44.75985],[14.47096,44.79824],[14.46115,44.8324],[14.4488,44.8754],[14.4488,44.87543],[14.46681,44.98323],[14.44457,44.98578],[14.41799,44.98883],[14.36117,45.08876],[14.35658,45.16735],[14.33497,45.17312],[14.32327,45.17624],[14.27097,45.12004],[14.29203,45.08878],[14.3033,45.07206],[14.34569,45.05573],[14.34944,45.00316],[14.39204,44.96477],[14.38797,44.93623],[14.38313,44.90236]]],[[[14.48613,45.02701],[14.56793,45.01888],[14.61982,45.01373],[14.61983,45.01373],[14.61975,44.97816],[14.71256,44.94205],[14.73197,44.9345],[14.81923,44.98006],[14.8174,44.98136],[14.66431,45.09048],[14.66889,45.14607],[14.66951,45.15358],[14.64621,45.16148],[14.63299,45.16596],[14.60043,45.20672],[14.56878,45.24633],[14.60043,45.20672],[14.56878,45.24633],[14.54473,45.17106],[14.54473,45.17105],[14.50632,45.11626],[14.43092,45.07258],[14.45187,45.05527],[14.48609,45.02701],[14.48613,45.02701]]],[[[13.71875,45.60583],[13.735,45.56449],[13.73497,45.56448],[13.59463,45.52642],[13.59455,45.5264],[13.59274,45.48352],[13.54069,45.49492],[13.50195,45.5034],[13.50674,45.4704],[13.51467,45.41577],[13.52639,45.39601],[13.54693,45.36139],[13.54282,45.34563],[13.53882,45.33033],[13.58715,45.2847],[13.58715,45.28469],[13.58523,45.25519],[13.5816,45.1993],[13.62299,45.0771],[13.68575,45.0343],[13.76021,44.98352],[13.80313,44.9266],[13.7974,44.88864],[13.83795,44.86561],[13.83793,44.86554],[13.82576,44.83187],[13.91672,44.79264],[13.91674,44.79263],[13.9667,44.7955],[13.98429,44.79651],[13.98396,44.84017],[13.98387,44.85142],[13.98388,44.85143],[14.05088,44.93779],[14.05092,44.93781],[14.12751,44.96497],[14.17184,44.9807],[14.17185,44.9807],[14.16047,45.0591],[14.16947,45.0697],[14.22714,45.13761],[14.24659,45.19406],[14.28738,45.31239],[14.2874,45.31246],[14.31989,45.35022],[14.44843,45.32039],[14.44848,45.32037],[14.44843,45.32039],[14.39056,45.33408],[14.39817,45.36132],[14.43314,45.3849],[14.41303,45.44133],[14.4599,45.48151],[14.47657,45.53467],[14.42618,45.50649],[14.35328,45.54468],[14.32366,45.50909],[14.25078,45.52768],[14.23526,45.52475],[14.16296,45.55816],[14.14924,45.60584],[14.09778,45.6136],[14.08379,45.63141],[14.06928,45.61764],[13.99504,45.62462],[13.94791,45.61111],[13.94804,45.64362],[13.89904,45.64407],[13.87161,45.6275],[13.84161,45.63173],[13.80941,45.6114],[13.77387,45.60398],[13.71875,45.60583]]]]},"properties":{"name":"Markgrafschaft Istrien"}},
{"type":"Feature","geometry":{"type":"Polygon","coordinates":[[[14.44848,45.32037],[14.55908,45.27335],[14.55911,45.27334],[14.71654,45.15176],[14.71668,45.15165],[14.80003,45.12013],[14.83445,45.10712],[14.92192,44.95757],[14.92191,44.95754],[14.88467,44.85334],[14.88299,44.83396],[14.87928,44.79119],[14.87928,44.79118],[14.89675,44.69565],[14.89677,44.69563],[14.96451,44.62326],[14.96452,44.62325],[14.98807,44.5731],[15.10361,44.5046],[15.10362,44.5046],[15.19481,44.43306],[15.28966,44.35865],[15.28974,44.35859],[15.29497,44.38501],[15.32034,44.41722],[15.39205,44.38489],[15.51839,44.35533],[15.5406,44.34418],[15.56778,44.2978],[15.6321,44.28841],[15.84978,44.22433],[15.91947,44.22236],[15.97928,44.1798],[15.99018,44.15229],[16.0507,44.13477],[16.07587,44.11849],[16.13239,44.13909],[16.12853,44.19433],[16.14111,44.21252],[16.19519,44.21391],[16.22083,44.2329],[16.19072,44.27364],[16.1887,44.30955],[16.21869,44.34814],[16.12823,44.39495],[16.17244,44.40282],[16.14061,44.42722],[16.1367,44.48421],[16.09314,44.53463],[16.06795,44.53511],[16.03132,44.55529],[15.96057,44.64132],[15.93178,44.71132],[15.89405,44.74935],[15.79622,44.8232],[15.76023,44.86962],[15.74077,44.93184],[15.75504,44.97031],[15.78529,44.98991],[15.75179,45.05313],[15.79033,45.11499],[15.76522,45.16613],[15.77687,45.18386],[15.83665,45.22373],[15.85845,45.21689],[15.92416,45.2262],[16.01484,45.21737],[16.05638,45.15773],[16.08659,45.13061],[16.10925,45.09354],[16.17554,45.06904],[16.19252,45.03228],[16.27996,45.01076],[16.29178,44.9987],[16.34985,45.00225],[16.39029,45.06881],[16.39275,45.10911],[16.47395,45.15171],[16.47548,45.18294],[16.52047,45.22335],[16.60257,45.22724],[16.65274,45.20532],[16.69996,45.19717],[16.74266,45.20438],[16.79881,45.18605],[16.84482,45.19286],[16.87803,45.22186],[16.88773,45.24673],[16.93917,45.27331],[16.9531,45.25288],[16.94219,45.22735],[17.00941,45.23873],[17.03905,45.22405],[17.07242,45.18996],[17.16338,45.15193],[17.24493,45.14596],[17.27143,45.18899],[17.33859,45.14524],[17.45072,45.12723],[17.49364,45.13079],[17.504,45.11486],[17.59193,45.10692],[17.66274,45.13397],[17.75775,45.0857],[17.78334,45.08331],[17.83312,45.04838],[17.86718,45.04571],[17.93739,45.08451],[17.93728,45.11052],[17.96868,45.11655],[17.98621,45.14445],[18.013,45.15103],[18.0735,45.13882],[18.07549,45.10472],[18.12,45.08024],[18.1856,45.07665],[18.22008,45.09533],[18.20833,45.11742],[18.23612,45.13613],[18.31991,45.10173],[18.42028,45.10932],[18.47776,45.06214],[18.53005,45.0564],[18.56727,45.0801],[18.59682,45.08316],[18.61483,45.06176],[18.66957,45.06638],[18.69375,45.03955],[18.71782,45.03524],[18.76039,44.99969],[18.7924,44.99518],[18.78456,44.97112],[18.80405,44.94605],[18.7648,44.9046],[18.81925,44.87843],[18.84976,44.85456],[18.9773,44.84991],[19.06721,44.8612],[19.12336,44.88796],[19.17022,44.92028],[19.21289,44.89755],[19.25738,44.91371],[19.30909,44.90911],[19.35294,44.88979],[19.35753,44.89924],[19.36541,44.90293],[19.38535,44.91228],[19.40875,44.95223],[19.43121,44.95584],[19.44871,44.95866],[19.44872,44.95866],[19.52981,44.97086],[19.62927,44.94157],[19.66159,44.9234],[19.62927,44.94157],[19.66159,44.9234],[19.72657,44.88686],[19.72561,44.88508],[19.69052,44.81957],[19.69124,44.81045],[19.694,44.77521],[19.70571,44.76839],[19.7377,44.74975],[19.78863,44.74735],[19.80508,44.74658],[19.8759,44.69722],[19.94087,44.68843],[19.95675,44.68952],[19.99643,44.69225],[19.99029,44.6814],[19.98278,44.66811],[19.92972,44.65746],[19.92554,44.6369],[19.9476,44.63318],[19.96615,44.63006],[20.04588,44.68512],[20.10222,44.69657],[20.13081,44.715],[20.16063,44.70347],[20.16721,44.67165],[20.22839,44.67908],[20.24718,44.67095],[20.27058,44.66083],[20.30737,44.68961],[20.30714,44.73445],[20.34763,44.76674],[20.36943,44.78413],[20.44377,44.80677],[20.44378,44.80678],[20.46017,44.82966],[20.3691,44.87175],[20.3341,44.91555],[20.30385,44.93737],[20.28559,44.97546],[20.30442,44.99443],[20.34931,45.00398],[20.35787,45.04869],[20.26067,45.14738],[20.23385,45.16495],[20.17678,45.18332],[20.13246,45.17005],[20.05561,45.16817],[19.97134,45.18359],[19.91609,45.2463],[19.86653,45.26725],[19.85043,45.23364],[19.89481,45.15383],[19.94341,45.14639],[19.98772,45.12258],[20.04542,45.11645],[20.09064,45.12706],[20.12851,45.08527],[20.13521,45.04678],[20.09493,45.01213],[20.02008,44.99976],[20.02253,44.95282],[19.95546,44.94301],[19.94697,44.91075],[19.98815,44.89331],[20.00612,44.87215],[19.99355,44.83436],[19.84689,44.84882],[19.81413,44.88776],[19.80727,44.91208],[19.82481,44.94494],[19.66056,45.01508],[19.49917,45.04943],[19.3946,45.06033],[19.37175,45.05088],[19.2971,45.07552],[19.16261,45.14752],[19.13904,45.13035],[19.06298,45.15156],[19.07416,45.18752],[19.02217,45.20255],[18.92621,45.27711],[18.84358,45.29265],[18.82945,45.32565],[18.73077,45.30922],[18.70788,45.32168],[18.63401,45.33123],[18.63237,45.31437],[18.51058,45.29283],[18.51181,45.24768],[18.4521,45.25585],[18.36392,45.24893],[18.26892,45.22448],[18.21465,45.21839],[18.17518,45.24355],[18.02769,45.28354],[17.8923,45.28832],[17.82777,45.2152],[17.75112,45.2355],[17.72037,45.2126],[17.69395,45.27173],[17.6199,45.2699],[17.5091,45.31151],[17.38052,45.27257],[17.36828,45.2942],[17.30123,45.29817],[17.33317,45.36699],[17.11925,45.4163],[17.13844,45.45011],[17.08091,45.49367],[17.02155,45.45596],[16.95408,45.45677],[16.92836,45.50369],[16.95369,45.56985],[17.04386,45.62539],[17.15293,45.67199],[17.28126,45.66218],[17.34198,45.69512],[17.36922,45.68773],[17.43368,45.72694],[17.46311,45.72338],[17.44705,45.76699],[17.39463,45.75538],[17.37963,45.72338],[17.34795,45.76327],[17.27916,45.77907],[17.27858,45.81026],[17.25286,45.81404],[17.19029,45.84437],[17.24435,45.90387],[17.29014,45.90281],[17.31397,45.93242],[17.35032,45.94173],[17.36887,45.97776],[17.31178,45.969],[17.25881,46.01297],[17.27113,46.05658],[17.23807,46.07787],[17.23189,46.09692],[17.17676,46.10733],[17.1803,46.14517],[17.15933,46.17085],[17.13075,46.17136],[17.00368,46.2217],[16.91181,46.26229],[16.88657,46.29756],[16.84684,46.31384],[16.81689,46.30016],[16.69963,46.32486],[16.61029,46.31307],[16.56655,46.32887],[16.50369,46.29712],[16.47119,46.30867],[16.36982,46.31489],[16.33361,46.33584],[16.32993,46.35796],[16.3015,46.37836],[16.18899,46.37764],[16.15125,46.40465],[16.05057,46.38199],[16.07792,46.3458],[16.03613,46.33696],[16.01433,46.30867],[15.79117,46.25947],[15.80136,46.24256],[15.77883,46.21266],[15.68081,46.22735],[15.64676,46.21698],[15.64518,46.18721],[15.60765,46.16718],[15.60551,46.11291],[15.64314,46.08784],[15.70952,46.05831],[15.71201,46.0044],[15.70652,45.92176],[15.67968,45.90413],[15.6775,45.86878],[15.70471,45.84441],[15.6318,45.8312],[15.58257,45.84725],[15.53785,45.84704],[15.52026,45.82115],[15.4788,45.82755],[15.46349,45.7938],[15.417,45.79488],[15.30087,45.7544],[15.25837,45.72484],[15.28821,45.69239],[15.31909,45.69206],[15.33946,45.71454],[15.39181,45.6671],[15.39056,45.63732],[15.35112,45.64699],[15.30827,45.61421],[15.29856,45.58455],[15.30084,45.53804],[15.32871,45.513],[15.30611,45.48608],[15.35937,45.477],[15.32905,45.45316],[15.27411,45.46624],[15.24416,45.45334],[15.22577,45.42635],[15.16571,45.42151],[15.13784,45.44478],[15.08424,45.46795],[15.08631,45.48285],[15.02547,45.48573],[14.98786,45.49642],[14.93198,45.52922],[14.91318,45.51769],[14.91175,45.48],[14.8172,45.45929],[14.80376,45.49528],[14.72137,45.53409],[14.68107,45.58852],[14.65298,45.59176],[14.59545,45.62747],[14.6083,45.65816],[14.57896,45.66541],[14.53578,45.6139],[14.51479,45.60719],[14.47657,45.53467],[14.4599,45.48151],[14.41303,45.44133],[14.43314,45.3849],[14.46425,45.33792],[14.44843,45.32039],[14.44848,45.32037]]]},"properties":{"name":"Königreich Kroatien und Slawonien"}},
{"type":"Feature","geometry":{"type":"Polygon","coordinates":[[[20.44378,44.80678],[20.47938,44.82905],[20.58476,44.84593],[20.5848,44.84594],[20.60436,44.82745],[20.63359,44.79983],[20.63155,44.79358],[20.62391,44.77023],[20.62846,44.76334],[20.63592,44.75203],[20.67806,44.73007],[20.68317,44.72393],[20.71237,44.68884],[20.77225,44.65948],[20.83884,44.65814],[20.92173,44.67092],[20.9913,44.7176],[21.05894,44.71676],[21.06137,44.71673],[21.06622,44.71788],[21.14255,44.73594],[21.20724,44.7746],[21.36701,44.82032],[21.36702,44.82032],[21.40935,44.77596],[21.50056,44.77549],[21.57761,44.76225],[21.58233,44.76144],[21.60378,44.74228],[21.61027,44.70379],[21.61316,44.68663],[21.61639,44.68334],[21.6394,44.65995],[21.63941,44.65995],[21.7177,44.65482],[21.73425,44.65667],[21.77494,44.6612],[21.80362,44.65849],[21.84375,44.65469],[21.99319,44.63351],[22.02507,44.59439],[22.02801,44.58036],[22.03427,44.55051],[22.07149,44.52438],[22.12258,44.47589],[22.12432,44.476],[22.18106,44.47968],[22.22825,44.55593],[22.28499,44.62031],[22.30146,44.639],[22.32034,44.67312],[22.38793,44.67885],[22.41889,44.72731],[22.39312,44.77704],[22.42141,44.79982],[22.44443,44.81836],[22.52954,44.99668],[22.53593,45.00339],[22.56922,45.03832],[22.57633,45.03997],[22.58858,45.04282],[22.66093,45.11173],[22.65583,45.11995],[22.65076,45.12812],[22.57192,45.14197],[22.55832,45.15646],[22.55819,45.1566],[22.58583,45.19288],[22.64073,45.22155],[22.66901,45.23632],[22.6797,45.2558],[22.69922,45.25569],[22.73583,45.25548],[22.82578,45.28254],[22.8601,45.26681],[22.87058,45.262],[22.88221,45.26526],[22.92671,45.27771],[22.94064,45.27493],[22.95867,45.27133],[22.96917,45.28032],[22.98473,45.29365],[22.98646,45.2929],[23.03428,45.27212],[23.10771,45.2884],[23.16342,45.26936],[23.19009,45.28328],[23.28749,45.30647],[23.31258,45.30063],[23.34775,45.32945],[23.37363,45.3299],[23.38245,45.33005],[23.40946,45.31581],[23.44513,45.29699],[23.44765,45.29803],[23.58602,45.35481],[23.60241,45.38643],[23.6008,45.38889],[23.57596,45.4269],[23.57904,45.43224],[23.59962,45.4679],[23.59149,45.49137],[23.65609,45.50736],[23.69111,45.49953],[23.73038,45.49075],[23.72991,45.48996],[23.70732,45.45175],[23.71005,45.43717],[23.71225,45.42542],[23.78469,45.42952],[23.82692,45.45987],[23.88872,45.47648],[23.90198,45.47624],[23.95273,45.4753],[23.90198,45.47624],[23.95273,45.4753],[24.0106,45.48827],[24.0351,45.51031],[24.04596,45.52009],[24.10412,45.51147],[24.11827,45.52029],[24.12196,45.52259],[24.20592,45.52389],[24.20728,45.52528],[24.22746,45.54592],[24.23116,45.54562],[24.25775,45.54347],[24.29202,45.5712],[24.29505,45.57192],[24.34074,45.58282],[24.41639,45.58044],[24.49635,45.57792],[24.60617,45.59862],[24.67099,45.60205],[24.81153,45.60948],[24.82541,45.60338],[24.85437,45.59066],[24.96787,45.5931],[25.00541,45.58511],[25.10374,45.58549],[25.11933,45.57593],[25.14712,45.55888],[25.15102,45.54225],[25.22943,45.51553],[25.23582,45.49892],[25.24926,45.46395],[25.28622,45.41663],[25.3383,45.38324],[25.38232,45.38559],[25.40351,45.38672],[25.40612,45.39876],[25.41157,45.42388],[25.454,45.44037],[25.49228,45.46488],[25.50824,45.47509],[25.50862,45.50952],[25.533,45.51368],[25.56056,45.51839],[25.60602,45.51208],[25.60622,45.51205],[25.61514,45.50353],[25.62893,45.49035],[25.65317,45.5135],[25.67182,45.5313],[25.70691,45.47331],[25.76397,45.46512],[25.78842,45.4792],[25.81615,45.45788],[25.81987,45.45502],[25.81989,45.45495],[25.82772,45.42993],[25.867,45.42385],[25.88484,45.44773],[25.89455,45.49296],[25.90809,45.50378],[25.92371,45.51626],[25.96854,45.50769],[25.98152,45.51072],[25.99467,45.51379],[26.00974,45.50315],[26.04436,45.47871],[26.06212,45.49388],[26.08349,45.51212],[26.11768,45.51923],[26.14034,45.52395],[26.17214,45.56282],[26.21487,45.62197],[26.23344,45.61216],[26.27879,45.58819],[26.3497,45.63774],[26.45374,45.66064],[26.50234,45.67134],[26.44317,45.7404],[26.44469,45.82021],[26.41864,45.86727],[26.44531,45.89134],[26.46346,45.94723],[26.47165,45.97244],[26.50361,46.01442],[26.50867,46.06109],[26.50975,46.07107],[26.50771,46.0803],[26.49304,46.14658],[26.44892,46.1753],[26.40313,46.20905],[26.37773,46.20919],[26.34172,46.20939],[26.32282,46.23742],[26.30439,46.24067],[26.26332,46.24792],[26.25482,46.26713],[26.27913,46.30677],[26.29451,46.33184],[26.29374,46.3521],[26.29315,46.36742],[26.25628,46.37965],[26.24003,46.38504],[26.17971,46.42992],[26.17655,46.43227],[26.1151,46.44985],[26.10873,46.47674],[26.05531,46.52934],[26.10906,46.55914],[26.13016,46.57084],[26.16429,46.60441],[26.1467,46.66212],[26.11311,46.6987],[26.10669,46.70154],[26.07771,46.71437],[26.0204,46.81378],[25.99706,46.84403],[25.95687,46.89612],[25.88331,46.95805],[25.84039,46.96289],[25.77079,47.0177],[25.77084,47.0297],[25.77086,47.03563],[25.7346,47.07435],[25.67869,47.08997],[25.62539,47.09514],[25.60829,47.08178],[25.57331,47.08318],[25.53729,47.08463],[25.53298,47.10635],[25.5182,47.11526],[25.53298,47.10635],[25.5182,47.11526],[25.43148,47.16755],[25.3017,47.17425],[25.30169,47.17425],[25.29521,47.17682],[25.20407,47.21297],[25.15808,47.24899],[25.08752,47.25016],[25.05243,47.26677],[25.03579,47.2948],[25.07753,47.31369],[25.07352,47.34248],[25.09865,47.36104],[25.16032,47.37135],[25.19639,47.40889],[25.13429,47.45682],[25.14314,47.4981],[25.18178,47.53273],[25.15946,47.5574],[25.1263,47.57158],[25.07597,47.57586],[25.05455,47.6572],[25.02377,47.66665],[24.92227,47.72683],[24.88546,47.72473],[24.87912,47.75357],[24.83565,47.78213],[24.8271,47.82071],[24.76309,47.83931],[24.70556,47.84076],[24.67157,47.86392],[24.67312,47.89627],[24.56527,47.96867],[24.5726,48.01366],[24.62703,48.0487],[24.5956,48.0908],[24.53043,48.12396],[24.50384,48.15275],[24.51067,48.18664],[24.53958,48.22447],[24.48416,48.24553],[24.48807,48.27982],[24.43143,48.31326],[24.41746,48.3318],[24.36048,48.35003],[24.35566,48.38027],[24.28363,48.40207],[24.2879,48.3795],[24.2577,48.3501],[24.14787,48.38899],[24.11426,48.49764],[24.13391,48.52496],[24.11495,48.53511],[24.07572,48.51302],[24.03223,48.50212],[23.99949,48.50578],[23.9818,48.4663],[23.92637,48.46398],[23.90722,48.48008],[23.92397,48.51393],[23.9073,48.56045],[23.85996,48.55272],[23.79057,48.59431],[23.79473,48.63939],[23.74532,48.64656],[23.70715,48.63782],[23.57146,48.72481],[23.5118,48.7339],[23.46334,48.72492],[23.37999,48.74207],[23.3613,48.7707],[23.31937,48.75404],[23.26854,48.76182],[23.20084,48.76045],[23.1779,48.8008],[23.13094,48.85159],[23.09752,48.86331],[23.0575,48.84675],[22.97187,48.84585],[22.96961,48.87396],[22.89376,48.90606],[22.87154,48.95626],[22.91781,48.9839],[22.8881,49.00706],[22.84734,49.00233],[22.83372,49.02605],[22.7658,49.05383],[22.7214,49.05262],[22.6834,49.03889],[22.63848,49.0604],[22.62748,49.07922],[22.58295,49.09739],[22.49945,49.08592],[22.45712,49.10341],[22.41327,49.102],[22.36314,49.14435],[22.31946,49.13544],[22.24641,49.15334],[22.23059,49.18067],[22.19281,49.17437],[22.14367,49.20058],[22.06927,49.21081],[22.02994,49.22523],[22.04174,49.25747],[21.96224,49.34839],[21.90335,49.35026],[21.85923,49.36804],[21.83967,49.39173],[21.8015,49.37997],[21.76347,49.3834],[21.7001,49.41791],[21.65996,49.41683],[21.63063,49.44723],[21.58738,49.43323],[21.56377,49.44102],[21.51847,49.42489],[21.52319,49.41996],[21.43391,49.41208],[21.39917,49.43489],[21.34441,49.45073],[21.30697,49.44807],[21.27741,49.46083],[21.2233,49.42538],[21.18125,49.40725],[21.12309,49.43666],[21.0472,49.41872],[21.05404,49.40398],[21.10406,49.37695],[21.07616,49.35965],[21.04562,49.3652],[20.98824,49.32828],[20.99385,49.31333],[20.93733,49.29827],[20.90982,49.30816],[20.8646,49.34834],[20.82529,49.33453],[20.79901,49.3631],[20.7458,49.3901],[20.74018,49.41653],[20.69255,49.42],[20.66488,49.40402],[20.61145,49.41372],[20.57639,49.37639],[20.51012,49.39341],[20.47249,49.4153],[20.42947,49.41591],[20.41084,49.3943],[20.33887,49.40113],[20.32443,49.42202],[20.26335,49.43872],[20.22948,49.46139],[20.18349,49.45087],[20.11402,49.45947],[20.0959,49.42545],[20.13269,49.33764],[20.15095,49.32067],[20.12512,49.27104],[20.10199,49.25294],[20.07568,49.17885],[20.02024,49.20156],[19.98149,49.23178],[19.93227,49.23646],[19.90229,49.21328],[19.84144,49.1935],[19.76294,49.20729],[19.76815,49.23643],[19.79231,49.26823],[19.8224,49.27733],[19.79218,49.30185],[19.80488,49.32333],[19.80463,49.36687],[19.78971,49.40593],[19.80395,49.47871],[19.85305,49.52835],[19.80005,49.56049],[19.75594,49.55769],[19.72991,49.5758],[19.68118,49.5745],[19.61923,49.62341],[19.59328,49.59392],[19.51764,49.57346],[19.44524,49.60076],[19.40935,49.59252],[19.37296,49.56777],[19.36817,49.53713],[19.26443,49.53207],[19.23487,49.50999],[19.21973,49.46964],[19.15163,49.4036],[19.05283,49.41569],[19.02743,49.39356],[18.98982,49.39821],[18.98744,49.42891],[18.94626,49.5173],[18.81126,49.51595],[18.75379,49.49014],[18.68513,49.50541],[18.6029,49.498],[18.5457,49.5006],[18.53448,49.48452],[18.548,49.47092],[18.50589,49.4433],[18.47704,49.41064],[18.43292,49.39329],[18.41519,49.3674],[18.36624,49.32459],[18.18486,49.28715],[18.18497,49.27061],[18.1479,49.24973],[18.15497,49.21642],[18.13085,49.18878],[18.10743,49.13404],[18.11592,49.08972],[18.07049,49.03826],[18.02351,49.02101],[17.93295,49.02397],[17.91371,49.01074],[17.88584,48.92842],[17.78466,48.92549],[17.70538,48.86163],[17.62977,48.85406],[17.59738,48.82875],[17.52092,48.81285],[17.45168,48.84707],[17.39664,48.81326],[17.36321,48.81369],[17.27865,48.85955],[17.2003,48.87864],[17.157,48.84727],[17.1077,48.82935],[17.08922,48.78493],[17.04427,48.76525],[16.97939,48.68169],[16.96959,48.64481],[16.93929,48.61692],[16.93532,48.57243],[16.9536,48.54502],[16.91402,48.5016],[16.85012,48.45038],[16.8635,48.41906],[16.83381,48.38384],[16.84291,48.35796],[16.90951,48.32612],[16.89406,48.31219],[16.92112,48.27229],[16.94659,48.27062],[16.94633,48.23462],[16.97639,48.19009],[16.97619,48.17199],[17.0689,48.12398],[17.03628,48.08432],[16.99815,48.05446],[16.98727,48.02959],[16.91749,48.06769],[16.87335,48.07203],[16.83563,48.04479],[16.75434,48.0128],[16.70135,48.01171],[16.69948,47.96601],[16.65871,47.9609],[16.6326,47.92949],[16.57417,47.88701],[16.5265,47.93241],[16.46637,47.94004],[16.4367,47.92727],[16.40025,47.87595],[16.35606,47.86592],[16.38826,47.84282],[16.30413,47.78509],[16.29221,47.71867],[16.30883,47.68736],[16.35137,47.67168],[16.37297,47.64285],[16.30917,47.54617],[16.33916,47.51601],[16.30261,47.46684],[16.22426,47.42794],[16.17203,47.42207],[16.12644,47.41269],[16.09314,47.39009],[16.0301,47.37929],[16.06502,47.28674],[16.08244,47.26208],[16.08097,47.22943],[16.11652,47.14419],[16.09524,47.11285],[16.08669,47.07423],[16.13465,46.99488],[16.06882,46.93443],[16.06206,46.91364],[16.01397,46.88447],[15.98945,46.77938],[15.99113,46.73562],[16.04261,46.6861],[16.03558,46.65085],[16.10857,46.6105],[16.19212,46.58417],[16.26777,46.53888],[16.24229,46.52137],[16.24086,46.48466],[16.25827,46.47266],[16.27564,46.41908],[16.30771,46.39728],[16.3015,46.37836],[16.32993,46.35796],[16.33361,46.33584],[16.36982,46.31489],[16.47119,46.30867],[16.50369,46.29712],[16.56655,46.32887],[16.61029,46.31307],[16.69963,46.32486],[16.81689,46.30016],[16.84684,46.31384],[16.88657,46.29756],[16.91181,46.26229],[17.00368,46.2217],[17.13075,46.17136],[17.15933,46.17085],[17.1803,46.14517],[17.17676,46.10733],[17.23189,46.09692],[17.23807,46.07787],[17.27113,46.05658],[17.25881,46.01297],[17.31178,45.969],[17.36887,45.97776],[17.35032,45.94173],[17.39232,45.9297],[17.43742,45.92887],[17.4349,45.95023],[17.53412,45.934],[17.56923,45.93684],[17.62372,45.90271],[17.67306,45.83463],[17.74646,45.82752],[17.75882,45.81185],[17.82939,45.80919],[17.85629,45.77005],[17.90438,45.79274],[17.92999,45.78592],[17.9952,45.79646],[18.02592,45.7772],[18.08231,45.76437],[18.11806,45.78436],[18.18838,45.78789],[18.23151,45.77945],[18.24337,45.76087],[18.33594,45.7526],[18.33064,45.72541],[18.3713,45.72502],[18.38085,45.70377],[18.42311,45.68508],[18.51382,45.68765],[18.52763,45.63715],[18.58353,45.61619],[18.62873,45.58055],[18.68222,45.56391],[18.74106,45.56327],[18.76598,45.54397],[18.87551,45.55267],[18.9504,45.53322],[19.02743,45.5534],[19.03395,45.5348],[19.06999,45.53237],[19.10283,45.50487],[19.05065,45.48484],[19.03054,45.48733],[18.99484,45.48918],[18.9888,45.44471],[19.02656,45.42447],[19.0264,45.40454],[18.98462,45.39837],[18.96993,45.37641],[19.02438,45.34406],[19.08103,45.3414],[19.10318,45.3],[19.19785,45.26462],[19.27596,45.27454],[19.26007,45.24298],[19.33913,45.23107],[19.48916,45.23916],[19.54233,45.25214],[19.5727,45.21307],[19.71465,45.23209],[19.8055,45.22001],[19.85043,45.23364],[19.86653,45.26725],[19.91609,45.2463],[19.97134,45.18359],[20.05561,45.16817],[20.13246,45.17005],[20.17678,45.18332],[20.23385,45.16495],[20.26067,45.14738],[20.35787,45.04869],[20.34931,45.00398],[20.30442,44.99443],[20.28559,44.97546],[20.30385,44.93737],[20.3341,44.91555],[20.3691,44.87175],[20.46017,44.82966],[20.44378,44.80678]]]},"properties":{"name":"Königreich Ungarn"}}
]}